{"type": "FeatureCollection", "features": [{"type": "Feature", "properties": {}, "geometry": {"coordinates": [[[[-112.19145426230635, 33.487739324401005], [-112.18642044666676, 33.48780658960331], [-112.1777669223016, 33.48777400714121], [-112.17775599027067, 33.48854155013397], [-112.17700679169494, 33.48812283644541], [-112.17670405105393, 33.48799296102946], [-112.17642900793776, 33.48793212263597], [-112.1759158171042, 33.48789481127324], [-112.1689352240016, 33.488013500818525], [-112.16888186722706, 33.49495498530603], [-112.13428338238302, 33.494963103781664], [-112.13418784541227, 33.50945523281646], [-112.11238578892187, 33.50951065571744], [-112.11228170468485, 33.524060357827636], [-112.09971364031392, 33.52414359819561], [-112.09958596211413, 33.53864715499511], [-112.0971279208021, 33.538606272041896], [-112.08245248897217, 33.538361168636726], [-112.0824646138891, 33.516820628710576], [-112.08246574361557, 33.51660644768412], [-112.06501046638222, 33.51638448207023], [-112.06501719430108, 33.50923409798208], [-112.04438315470412, 33.50924247675931], [-112.04439647907938, 33.50748608304292], [-112.04439207436306, 33.50732179285325], [-112.04438764618357, 33.507239707308734], [-112.04438282485836, 33.507171352244235], [-112.04437155247089, 33.507048462234344], [-112.04435695345988, 33.50692582090987], [-112.0443390354571, 33.50680348506841], [-112.0443099978935, 33.50664096321037], [-112.0442750705662, 33.506479123677025], [-112.0442449693016, 33.506358078059044], [-112.04421158506898, 33.50623763814172], [-112.04385986695156, 33.50504517076096], [-112.04383680009825, 33.5049657309301], [-112.04381178028925, 33.50487267753177], [-112.04378881040375, 33.504779254132956], [-112.04376229953641, 33.50465864741037], [-112.04374159944048, 33.50455102631552], [-112.04372154431857, 33.50442954733297], [-112.04370832208308, 33.50433480826454], [-112.04369304674933, 33.5041991488529], [-112.04368389523243, 33.5040904086207], [-112.04367882274565, 33.50400876279198], [-112.04367577095377, 33.50394067725905], [-112.04367378791656, 33.50387256718572], [-112.04367287148806, 33.503804438886135], [-112.04367291027756, 33.50374993329061], [-112.0437165913132, 33.49836484038892], [-112.03022541666945, 33.498459757334615], [-112.03020674529643, 33.48756644818417], [-112.03020301600895, 33.480304314513624], [-112.02156494295124, 33.480403150669254], [-112.02157994212605, 33.473078149620015], [-112.01291994029282, 33.473117150612495], [-112.01292893933551, 33.465737149444465], [-112.04153257433917, 33.46577141803943], [-112.06125925797775, 33.465734479714726], [-112.06361789582083, 33.46572787773773], [-112.0647781317873, 33.46572461428048], [-112.06562141464852, 33.465724681467506], [-112.06658567255052, 33.465726791417936], [-112.06774492428988, 33.465729317339616], [-112.06869991161562, 33.46573139148416], [-112.0694387011646, 33.46573298999675], [-112.07101314137753, 33.46573638147731], [-112.07104455302341, 33.465736449667915], [-112.07119985223, 33.46573678367728], [-112.07132794744756, 33.4657370585582], [-112.07139954215455, 33.46573721087543], [-112.07160708903088, 33.465737657688656], [-112.07172543487981, 33.46573791098031], [-112.07254378801024, 33.46573966105642], [-112.07386182864393, 33.46574278934122], [-112.07438969563682, 33.46574822609566], [-112.07510898540876, 33.46575562526501], [-112.07588921246112, 33.46576364894332], [-112.07628960541761, 33.465767765180956], [-112.07677627874244, 33.46577276600344], [-112.07726613884094, 33.46577779956006], [-112.07824747297661, 33.465787872287876], [-112.07856654120219, 33.46579114486493], [-112.07871241824567, 33.4657926413511], [-112.07931873488705, 33.46579886165769], [-112.0794904855247, 33.46580062264326], [-112.08030335835919, 33.46580895166595], [-112.08085929653664, 33.46581464572162], [-112.08124008002609, 33.46581854651456], [-112.08145342813815, 33.46582072835464], [-112.0820010327618, 33.46582633368845], [-112.0826740698518, 33.46583321773328], [-112.0826649166041, 33.4652135306618], [-112.08265690292497, 33.464673489920166], [-112.0826400410482, 33.463536943245884], [-112.08263433571977, 33.463152352103684], [-112.08262061605645, 33.46223046204594], [-112.08260634610853, 33.461268578634474], [-112.08256788035084, 33.45866035289949], [-112.08370316505041, 33.458657918799425], [-112.08483557759004, 33.458654478215095], [-112.08590626494386, 33.45865263633093], [-112.08695066209039, 33.45865262741412], [-112.08811020176474, 33.458649719290584], [-112.08844993284893, 33.458649015515036], [-112.08913958454202, 33.458647583783616], [-112.09022351726978, 33.45864564922076], [-112.09173721044961, 33.45863939581593], [-112.09343851187728, 33.458619009198635], [-112.09343853463776, 33.45863340569309], [-112.0956125221688, 33.45862256673052], [-112.09607628045146, 33.458620250027145], [-112.09624736528706, 33.45861939460051], [-112.09641214193148, 33.458618570625596], [-112.0965838969487, 33.45861771105791], [-112.0968334199441, 33.458616464153316], [-112.09717591767291, 33.4586147486934], [-112.09753617813736, 33.45861294506087], [-112.09787519793879, 33.45861124626827], [-112.09843405431235, 33.45860844177994], [-112.10004834382858, 33.45860033165804], [-112.10004230592223, 33.45929444493124], [-112.10004076718842, 33.45947618189557], [-112.10003416499734, 33.4602385391665], [-112.10002503586306, 33.46129277539163], [-112.10001701442722, 33.462219146263436], [-112.1172556394338, 33.46174540002267], [-112.11753388614926, 33.45109153338407], [-112.11903078011238, 33.45113539276878], [-112.11955058717973, 33.45115061886162], [-112.1201310863608, 33.45116797761401], [-112.12134480967957, 33.451204268088944], [-112.12217194729828, 33.45122899069105], [-112.12374263422763, 33.451275925094535], [-112.12497293543115, 33.45131267083935], [-112.12603649269701, 33.451344429124525], [-112.12820927927683, 33.45136457236851], [-112.1303805241115, 33.451384666667394], [-112.13453008176386, 33.451422958628584], [-112.13560600315301, 33.4514200852303], [-112.13689791625913, 33.451416621591534], [-112.13776520953294, 33.4514142891811], [-112.13883652025461, 33.45141139867752], [-112.13992625048799, 33.451408452229195], [-112.14084169223278, 33.451405967415624], [-112.14328447389303, 33.4513992872393], [-112.14430311386278, 33.45139635738796], [-112.14532173973231, 33.45139342009606], [-112.1468401667895, 33.45138902739613], [-112.14861853869125, 33.45138385870639], [-112.14948999654875, 33.45138131566827], [-112.15100101694672, 33.45137689133235], [-112.15155724063914, 33.45137525912497], [-112.15177429049677, 33.45137462234958], [-112.15183046196306, 33.462042038867494], [-112.15619855639942, 33.46233511558602], [-112.16045170630201, 33.46262905247059], [-112.16361385892671, 33.46275916318896], [-112.16892000895642, 33.46297845271895], [-112.16904197120301, 33.47330014195897], [-112.18598797384159, 33.47326514180703], [-112.18641239561289, 33.47314947649002], [-112.18639565083943, 33.48055098000007], [-112.19074120990715, 33.48049743526328], [-112.19074703105994, 33.480881794472495], [-112.19074985771144, 33.48095044766721], [-112.19076056982752, 33.4810461847199], [-112.19077606713498, 33.481127585082795], [-112.19079730439103, 33.48120807015232], [-112.19081933266881, 33.48127423818351], [-112.19085088052744, 33.48135231184918], [-112.19175372854083, 33.4828386235697], [-112.19005475780209, 33.48357395260312], [-112.19081412296845, 33.48481155750684], [-112.19118994680683, 33.485426107499784], [-112.19124711091455, 33.485518241164215], [-112.19129593315971, 33.485604876729724], [-112.19133133612596, 33.48568146018903], [-112.1913649033636, 33.48577304916732], [-112.19138995184066, 33.485866531637875], [-112.19140448263335, 33.48594774644515], [-112.19141262558969, 33.48602959126692], [-112.19141474983324, 33.48609980947969], [-112.19145426230635, 33.487739324401005]], [[-112.06332502246957, 33.48725218206292], [-112.0633319816713, 33.482571427041584], [-112.06113654939405, 33.482574983866385], [-112.06113972253007, 33.481675158610436], [-112.05637358336493, 33.48167417178892], [-112.05636807588859, 33.48724303935776], [-112.06332502246957, 33.48725218206292]]]], "type": "MultiPolygon"}}]}