{"type": "FeatureCollection", "features": [{"type": "Feature", "properties": {"Precinct_Cap": "BERRIDGE", "district_id": "MC0055", "total_responses": 0, "mailing_back": 0, "voting_in_person": 0, "not_voting": 0}, "geometry": {"coordinates": [[[[-112.0996479, 33.5313979], [-112.1014065, 33.5313929], [-112.1016845, 33.5313769], [-112.10396649999998, 33.5313749], [-112.1039745, 33.5296209], [-112.10828949999998, 33.5296019], [-112.1082845, 33.5313409], [-112.1123204, 33.5313382], [-112.1123624, 33.5313382], [-112.1123794, 33.5240609], [-112.11228169999998, 33.5240616], [-112.10830909999999, 33.524088], [-112.0997126, 33.5241449], [-112.09971, 33.5241449], [-112.0996479, 33.5313979]]]], "type": "MultiPolygon"}}, {"type": "Feature", "properties": {"Precinct_Cap": "CENTRAL HIGH", "district_id": "MC0119", "total_responses": 60, "mailing_back": 39, "voting_in_person": 20, "not_voting": 1}, "geometry": {"coordinates": [[[[-112.0563512, 33.4874417], [-112.0563448, 33.4927555], [-112.05634249999999, 33.4947378], [-112.05634249999999, 33.4947379], [-112.0563141, 33.4996722], [-112.0563129, 33.4998896], [-112.0584084, 33.5011342], [-112.06173, 33.5020874], [-112.0624084, 33.5021614], [-112.0639794, 33.5022642], [-112.06460429999998, 33.5023532], [-112.0650374, 33.5024596], [-112.0650376, 33.5024598], [-112.0650391, 33.5024602], [-112.0651971, 33.5025154], [-112.0656708, 33.5026806], [-112.06574849999998, 33.5027047], [-112.06637489999999, 33.5028996], [-112.06732970000002, 33.5031332], [-112.0702473, 33.5036244], [-112.0713688, 33.503748], [-112.0733298, 33.5038538], [-112.073782, 33.5039048], [-112.0737825, 33.503779], [-112.0738143, 33.4948034], [-112.0738024, 33.4907049], [-112.0737932, 33.4875426], [-112.0706872, 33.4875192], [-112.0695718, 33.4875108], [-112.0694229, 33.4875096], [-112.0652009, 33.4874777], [-112.0650661, 33.4874766], [-112.0649391, 33.4874761], [-112.0642339, 33.4874733], [-112.0642338, 33.4874733], [-112.0564782, 33.4874422], [-112.0563512, 33.4874417]]]], "type": "MultiPolygon"}}, {"type": "Feature", "properties": {"Precinct_Cap": "WESTWARD HO", "district_id": "MC0899", "total_responses": 0, "mailing_back": 0, "voting_in_person": 0, "not_voting": 0}, "geometry": {"coordinates": [[[[-112.056428, 33.4618357], [-112.06073829999998, 33.4619294], [-112.06114610000002, 33.4619483], [-112.0613047, 33.4619556], [-112.06132089999998, 33.4619558], [-112.06197790000002, 33.4619638], [-112.0625123, 33.461999], [-112.0630277, 33.4620581], [-112.0635169, 33.4621143], [-112.06461769999999, 33.4622294], [-112.06515509999998, 33.4622597], [-112.0651653, 33.4622605], [-112.0672468, 33.4624233], [-112.0675674, 33.4624676], [-112.0680163, 33.4625029], [-112.0685399, 33.4625023], [-112.0689887, 33.4625017], [-112.0693856, 33.4624584], [-112.06943449999999, 33.4624491], [-112.0702084, 33.4623009], [-112.0703464, 33.4622745], [-112.0710389, 33.4621245], [-112.071813, 33.4619568], [-112.0723608, 33.4618381], [-112.0727571, 33.4617632], [-112.0731984, 33.4616991], [-112.0734881, 33.4616718], [-112.0736702, 33.461665], [-112.0736954, 33.4616613], [-112.0738252, 33.4616421], [-112.0738256, 33.4616421], [-112.0738294, 33.4616415], [-112.0738325, 33.4606485], [-112.07383649999998, 33.4593613], [-112.0738386, 33.4586787], [-112.0738387, 33.4586624], [-112.074015, 33.4586629], [-112.0757048, 33.4586677], [-112.0777821, 33.4586735], [-112.082556, 33.4586867], [-112.082563, 33.4586868], [-112.0825662, 33.4586868], [-112.0870031, 33.4586795], [-112.089099, 33.458676], [-112.0912632, 33.4586724], [-112.0825666, 33.4514668], [-112.0825286, 33.4514353], [-112.0804342, 33.4514273], [-112.07444329999998, 33.4514043], [-112.0744393, 33.4514043], [-112.0738528, 33.4514021], [-112.07383049999999, 33.4514019], [-112.07382429999998, 33.4514019], [-112.071195, 33.4513895], [-112.0711824, 33.4513895], [-112.0699836, 33.4513838], [-112.0652212, 33.4513611], [-112.0651522, 33.4513611], [-112.0650884, 33.4513611], [-112.06419569999998, 33.4513611], [-112.0640761, 33.4513611], [-112.0564234, 33.4513609], [-112.05592930000002, 33.4513732], [-112.05595329999998, 33.4538807], [-112.05643030000002, 33.4538805], [-112.0564584, 33.4538805], [-112.05644209999998, 33.4581671], [-112.0564401, 33.4586686], [-112.056428, 33.4618357]]]], "type": "MultiPolygon"}}, {"type": "Feature", "properties": {"Precinct_Cap": "ROADRUNNER", "district_id": "MC0698", "total_responses": 0, "mailing_back": 0, "voting_in_person": 0, "not_voting": 0}, "geometry": {"coordinates": [[[[-112.15154669999998, 33.5094565], [-112.1515683, 33.5094559], [-112.15226570000002, 33.5094366], [-112.155495, 33.5093472], [-112.168767, 33.5093719], [-112.1687679, 33.5093719], [-112.16877949999999, 33.5093719], [-112.1687796, 33.5093568], [-112.1687801, 33.5092936], [-112.1688196, 33.5037059], [-112.1688302, 33.5022116], [-112.1688306, 33.5021517], [-112.1688531, 33.4989081], [-112.1688806, 33.4949559], [-112.1602679, 33.4949453], [-112.1601367, 33.4949396], [-112.1580176, 33.4949644], [-112.157581, 33.4949652], [-112.15596229999998, 33.4949681], [-112.1519635, 33.4949753], [-112.1516973, 33.4949757], [-112.1516112, 33.5021949], [-112.15155070000002, 33.5090084], [-112.15154789999998, 33.5093266], [-112.15154669999998, 33.5094565]]]], "type": "MultiPolygon"}}, {"type": "Feature", "properties": {"Precinct_Cap": "TUMBLEWEED", "district_id": "MC0854", "total_responses": 0, "mailing_back": 0, "voting_in_person": 0, "not_voting": 0}, "geometry": {"coordinates": [[[[-112.2119892, 33.465772], [-112.2119865, 33.4657721], [-112.2033812, 33.4658657], [-112.2033524, 33.4658661], [-112.20333229999999, 33.4731007], [-112.20318129999998, 33.4731022], [-112.1864107, 33.4732682], [-112.1863958, 33.4798199], [-112.1863942, 33.4805522], [-112.19073149999998, 33.4804881], [-112.2031405, 33.4803448], [-112.2032768, 33.4803432], [-112.2119183, 33.4802707], [-112.2119364, 33.4802705], [-112.2140616, 33.4802392], [-112.22064869999998, 33.4801422], [-112.2206506, 33.480039], [-112.2206764, 33.4786709], [-112.22075710000001, 33.4728888], [-112.2206562, 33.4675754], [-112.2205388, 33.4656778], [-112.2119892, 33.465772]]]], "type": "MultiPolygon"}}, {"type": "Feature", "properties": {"Precinct_Cap": "MCDOWELL", "district_id": "MC0503", "total_responses": 0, "mailing_back": 0, "voting_in_person": 0, "not_voting": 0}, "geometry": {"coordinates": [[[[-112.0563783, 33.4712069], [-112.0651174, 33.4711793], [-112.0654973, 33.4711781], [-112.0689568, 33.471167], [-112.0690976, 33.4711695], [-112.0691301, 33.4711685], [-112.0691625, 33.4711661], [-112.06919469999998, 33.4711624], [-112.06922670000002, 33.4711573], [-112.0692515, 33.4711524], [-112.0692784, 33.471146], [-112.069335, 33.4711299], [-112.06936029999999, 33.4711234], [-112.06938590000001, 33.4711177], [-112.0694118, 33.4711128], [-112.06943429999998, 33.4711094], [-112.0694581, 33.4711064], [-112.0694808, 33.4711043], [-112.06950489999998, 33.4711027], [-112.0737924, 33.471152], [-112.0738208, 33.4657431], [-112.0738264, 33.463065], [-112.0738285, 33.4620685], [-112.0738285, 33.4620661], [-112.0738294, 33.4616415], [-112.0738256, 33.4616421], [-112.0738252, 33.4616421], [-112.0736954, 33.4616613], [-112.0736702, 33.461665], [-112.0734881, 33.4616718], [-112.0731984, 33.4616991], [-112.0727571, 33.4617632], [-112.0723608, 33.4618381], [-112.071813, 33.4619568], [-112.0710389, 33.4621245], [-112.0703464, 33.4622745], [-112.0702084, 33.4623009], [-112.06943449999999, 33.4624491], [-112.0693856, 33.4624584], [-112.0689887, 33.4625017], [-112.0685399, 33.4625023], [-112.0680163, 33.4625029], [-112.0675674, 33.4624676], [-112.0672468, 33.4624233], [-112.0651653, 33.4622605], [-112.06515509999998, 33.4622597], [-112.06461769999999, 33.4622294], [-112.0635169, 33.4621143], [-112.0630277, 33.4620581], [-112.0625123, 33.461999], [-112.06197790000002, 33.4619638], [-112.06132089999998, 33.4619558], [-112.0613047, 33.4619556], [-112.06114610000002, 33.4619483], [-112.06073829999998, 33.4619294], [-112.056428, 33.4618357], [-112.0564029, 33.4618359], [-112.0520481, 33.4618723], [-112.0498294, 33.4618739], [-112.0476574, 33.4618543], [-112.0407264, 33.4619382], [-112.03901410000002, 33.4619589], [-112.039013, 33.4619589], [-112.0390123, 33.4619589], [-112.0381198, 33.461977], [-112.0381498, 33.4657731], [-112.0390171, 33.4657735], [-112.04238469999999, 33.4657739], [-112.0432468, 33.465774], [-112.04550749999999, 33.4657743], [-112.0476834, 33.4657745], [-112.0476892, 33.4657745], [-112.0498488, 33.4657684], [-112.052036, 33.4657623], [-112.056346, 33.46575], [-112.056409, 33.4657498], [-112.05638869999999, 33.4693703], [-112.0563783, 33.4712069]]]], "type": "MultiPolygon"}}, {"type": "Feature", "properties": {"Precinct_Cap": "LUKE", "district_id": "MC0473", "total_responses": 0, "mailing_back": 0, "voting_in_person": 0, "not_voting": 0}, "geometry": {"coordinates": [[[[-112.0997973, 33.5168774], [-112.0997972, 33.5168866], [-112.0997609, 33.5199126], [-112.09971409999999, 33.5238071], [-112.0997106, 33.5240956], [-112.09971, 33.5241449], [-112.0997126, 33.5241449], [-112.10830909999999, 33.524088], [-112.11228169999998, 33.5240616], [-112.1123794, 33.5240609], [-112.11238, 33.5240609], [-112.11691390000001, 33.5240306], [-112.1212482, 33.5240173], [-112.1255789, 33.5240039], [-112.1255931, 33.5240038], [-112.1255948, 33.5167386], [-112.12127730000002, 33.5167918], [-112.12128069999999, 33.5158335], [-112.1212839, 33.5149207], [-112.12129, 33.5131955], [-112.1212969, 33.5112501], [-112.1212973, 33.5111388], [-112.1212973, 33.5111385], [-112.1213032, 33.5094599], [-112.1169885, 33.5094698], [-112.11249490000002, 33.5095079], [-112.1123764, 33.5095091], [-112.1084452, 33.5095481], [-112.1000295, 33.5096239], [-112.0998898, 33.5096251], [-112.0998897, 33.509632], [-112.0998376, 33.5132551], [-112.0997973, 33.5168774]]]], "type": "MultiPolygon"}}, {"type": "Feature", "properties": {"Precinct_Cap": "CAPITOL SCHOOL", "district_id": "MC0104", "total_responses": 0, "mailing_back": 0, "voting_in_person": 0, "not_voting": 0}, "geometry": {"coordinates": [[[[-112.100075, 33.4512748], [-112.0993818, 33.4512812], [-112.09892469999998, 33.4512854], [-112.0989244, 33.4512854], [-112.09609869999998, 33.4513114], [-112.0913556, 33.4513548], [-112.09128710000002, 33.4513554], [-112.09105610000002, 33.4513575], [-112.08402829999999, 33.4514216], [-112.0825707, 33.4514349], [-112.0825664, 33.4514349], [-112.0825286, 33.4514353], [-112.0825666, 33.4514668], [-112.0912632, 33.4586724], [-112.0912825, 33.4586722], [-112.0935622, 33.458654], [-112.0955552, 33.4586381], [-112.097969, 33.4586187], [-112.09797129999998, 33.4586187], [-112.1000469, 33.4586021], [-112.1000469, 33.4585861], [-112.1000626, 33.4550215], [-112.100063, 33.4549245], [-112.1000709, 33.4531325], [-112.100079, 33.4512748], [-112.100075, 33.4512748]]]], "type": "MultiPolygon"}}, {"type": "Feature", "properties": {"Precinct_Cap": "LOMA LINDA", "district_id": "MC0458", "total_responses": 65, "mailing_back": 42, "voting_in_person": 20, "not_voting": 3}, "geometry": {"coordinates": [[[[-112.0476446, 33.4802119], [-112.0454968, 33.4802242], [-112.0452928, 33.4802253], [-112.04377490000002, 33.480234], [-112.0389175, 33.4802617], [-112.0384236, 33.4802643], [-112.0383881, 33.4802645], [-112.0342923, 33.480286], [-112.0342104, 33.4802864], [-112.0303345, 33.4803066], [-112.03021209999999, 33.4803073], [-112.0302032, 33.4803073], [-112.0302032, 33.4803162], [-112.0302048, 33.4838641], [-112.03020490000002, 33.4840449], [-112.0302065, 33.4875701], [-112.0302082, 33.4891461], [-112.0302091, 33.4899479], [-112.0302117, 33.4922713], [-112.03021449999999, 33.4947569], [-112.0302146, 33.4948569], [-112.0302462, 33.4948566], [-112.0322996, 33.4948411], [-112.0345516, 33.494824], [-112.0389206, 33.494795], [-112.04162610000002, 33.4947775], [-112.0437124, 33.4947639], [-112.0437676, 33.4947635], [-112.0437692, 33.4947618], [-112.0437717, 33.4947082], [-112.0437947, 33.4942266], [-112.0438167, 33.4936572], [-112.0438436, 33.4932333], [-112.0438639, 33.4929951], [-112.0438711, 33.4927059], [-112.0438582, 33.4924006], [-112.0438218, 33.4919219], [-112.04377209999998, 33.4915661], [-112.043713, 33.4912904], [-112.0434634, 33.4904543], [-112.0433364, 33.4901042], [-112.043244, 33.4899004], [-112.0431005, 33.4896162], [-112.0419452, 33.4875151], [-112.0431053, 33.487506], [-112.04755190000002, 33.487471], [-112.0476678, 33.4874701], [-112.0476677, 33.4874359], [-112.0476646, 33.4862225], [-112.04765770000002, 33.4835495], [-112.0476557, 33.4827764], [-112.04765489999998, 33.4824431], [-112.0476514, 33.4810989], [-112.04764910000002, 33.4802118], [-112.0476446, 33.4802119]]]], "type": "MultiPolygon"}}, {"type": "Feature", "properties": {"Precinct_Cap": "GEORGIA", "district_id": "MC0308", "total_responses": 0, "mailing_back": 0, "voting_in_person": 0, "not_voting": 0}, "geometry": {"coordinates": [[[[-112.0443516, 33.5092144], [-112.0441119, 33.5163947], [-112.04410790000001, 33.5165142], [-112.0442278, 33.5181068], [-112.04424790000002, 33.519093], [-112.04422110000002, 33.5198914], [-112.0441472, 33.5204785], [-112.04396049999998, 33.5220272], [-112.04376870000002, 33.5237646], [-112.04748730000001, 33.5237309], [-112.0475386, 33.5164826], [-112.0475384, 33.516373], [-112.0475254, 33.5092195], [-112.04508690000002, 33.5092137], [-112.04445189999998, 33.5092122], [-112.0443516, 33.5092119], [-112.0443516, 33.5092144]]]], "type": "MultiPolygon"}}, {"type": "Feature", "properties": {"Precinct_Cap": "MARYVALE", "district_id": "MC0497", "total_responses": 0, "mailing_back": 0, "voting_in_person": 0, "not_voting": 0}, "geometry": {"coordinates": [[[[-112.1758606, 33.4878844], [-112.1718809, 33.4879403], [-112.169427, 33.4879895], [-112.16905210000002, 33.4879925], [-112.1689405, 33.4879933], [-112.168939, 33.4879934], [-112.1688806, 33.4949479], [-112.1688806, 33.4949559], [-112.1688531, 33.4989081], [-112.1688306, 33.5021517], [-112.1688302, 33.5022116], [-112.1688196, 33.5037059], [-112.1687801, 33.5092936], [-112.1687796, 33.5093568], [-112.16877949999999, 33.5093719], [-112.1703702, 33.5093826], [-112.18627589999998, 33.5094886], [-112.1863652, 33.5094892], [-112.1863654, 33.5094658], [-112.18636589999998, 33.5094], [-112.1864802, 33.4950837], [-112.1862108, 33.4950824], [-112.1776611, 33.4950409], [-112.1777692, 33.4885142], [-112.1777473, 33.4885026], [-112.1776491, 33.4884507], [-112.1774602, 33.4883509], [-112.176745, 33.4880037], [-112.176302, 33.4879018], [-112.1758606, 33.4878844]]]], "type": "MultiPolygon"}}, {"type": "Feature", "properties": {"Precinct_Cap": "EDISON", "district_id": "MC0252", "total_responses": 0, "mailing_back": 0, "voting_in_person": 0, "not_voting": 0}, "geometry": {"coordinates": [[[[-112.0302568, 33.463196], [-112.0302658, 33.4648035], [-112.0302658, 33.4648047], [-112.0302711, 33.4657693], [-112.0342515, 33.4657713], [-112.03474669999999, 33.4657715], [-112.03813089999998, 33.4657731], [-112.0381498, 33.4657731], [-112.0381198, 33.461977], [-112.0390123, 33.4619589], [-112.039013, 33.4619589], [-112.03901410000002, 33.4619589], [-112.0407264, 33.4619382], [-112.0476574, 33.4618543], [-112.0498294, 33.4618739], [-112.0520481, 33.4618723], [-112.0564029, 33.4618359], [-112.056428, 33.4618357], [-112.0564401, 33.4586686], [-112.05644209999998, 33.4581671], [-112.0564584, 33.4538805], [-112.05643030000002, 33.4538805], [-112.05595329999998, 33.4538807], [-112.05592930000002, 33.4513732], [-112.0477202, 33.4514308], [-112.0470195, 33.4514289], [-112.038993, 33.451407], [-112.0389872, 33.451407], [-112.0389984, 33.4528099], [-112.0390186, 33.455345], [-112.03900769999998, 33.455345], [-112.0390028, 33.4553451], [-112.0369626, 33.45536], [-112.03643710000001, 33.4552768], [-112.0360206, 33.455211], [-112.0359041, 33.4552102], [-112.0308466, 33.4551765], [-112.0302127, 33.4551722], [-112.0302216, 33.4567948], [-112.0302234, 33.4571254], [-112.0302314, 33.458603], [-112.03023869999998, 33.4599167], [-112.0302568, 33.463196]]]], "type": "MultiPolygon"}}, {"type": "Feature", "properties": {"Precinct_Cap": "NORTH HIGH", "district_id": "MC0552", "total_responses": 0, "mailing_back": 0, "voting_in_person": 0, "not_voting": 0}, "geometry": {"coordinates": [[[[-112.0650898, 33.4802048], [-112.0652158, 33.4802055], [-112.065221, 33.4802055], [-112.0672666, 33.480217], [-112.0694537, 33.4802292], [-112.0737837, 33.4802533], [-112.0737972, 33.4802534], [-112.0737971, 33.4800657], [-112.07379530000001, 33.4766536], [-112.07379530000001, 33.4766474], [-112.0737952, 33.4765625], [-112.07379430000002, 33.4748167], [-112.07379389999998, 33.4739881], [-112.0737934, 33.4729989], [-112.0737924, 33.471152], [-112.06950489999998, 33.4711027], [-112.0694808, 33.4711043], [-112.0694581, 33.4711064], [-112.06943429999998, 33.4711094], [-112.0694118, 33.4711128], [-112.06938590000001, 33.4711177], [-112.06936029999999, 33.4711234], [-112.069335, 33.4711299], [-112.0692784, 33.471146], [-112.0692515, 33.4711524], [-112.06922670000002, 33.4711573], [-112.06919469999998, 33.4711624], [-112.0691625, 33.4711661], [-112.0691301, 33.4711685], [-112.0690976, 33.4711695], [-112.0689568, 33.471167], [-112.0654973, 33.4711781], [-112.0651174, 33.4711793], [-112.0563783, 33.4712069], [-112.0563848, 33.4729797], [-112.05638489999998, 33.4730247], [-112.052037, 33.4730281], [-112.0520158, 33.4730282], [-112.0520155, 33.4729863], [-112.0520151, 33.4729324], [-112.0476653, 33.4729928], [-112.04765009999998, 33.4797776], [-112.04765009999998, 33.4797825], [-112.04764910000002, 33.4802041], [-112.04764910000002, 33.4802057], [-112.04764910000002, 33.4802118], [-112.047782, 33.4802121], [-112.04985849999998, 33.4802161], [-112.0508508, 33.480218], [-112.0537614, 33.4802235], [-112.0562614, 33.4802209], [-112.0569442, 33.4802197], [-112.0595059, 33.4802151], [-112.05962850000002, 33.4802148], [-112.0619978, 33.4802104], [-112.0640558, 33.4802066], [-112.0644666, 33.4802058], [-112.0649576, 33.4802049], [-112.0650898, 33.4802048]]]], "type": "MultiPolygon"}}, {"type": "Feature", "properties": {"Precinct_Cap": "MEADOWBROOK", "district_id": "MC0507", "total_responses": 6, "mailing_back": 2, "voting_in_person": 4, "not_voting": 0}, "geometry": {"coordinates": [[[[-112.0437676, 33.4947635], [-112.0437414, 33.4953794], [-112.04371749999999, 33.4958328], [-112.0436936, 33.4962408], [-112.0436643, 33.4969246], [-112.0437195, 33.4983599], [-112.0437194, 33.498375], [-112.0436843, 33.5020766], [-112.0436843, 33.5020774], [-112.0436668, 33.5034769], [-112.0437221, 33.5045349], [-112.0439282, 33.5053194], [-112.04401930000002, 33.5056147], [-112.0442112, 33.5062375], [-112.0442395, 33.5063293], [-112.04437149999998, 33.5075737], [-112.0443516, 33.5092068], [-112.0443516, 33.5092119], [-112.04445189999998, 33.5092122], [-112.04508690000002, 33.5092137], [-112.0475254, 33.5092195], [-112.047574, 33.5020618], [-112.04757469999998, 33.5019555], [-112.0476386, 33.494734], [-112.0437676, 33.4947635]]]], "type": "MultiPolygon"}}, {"type": "Feature", "properties": {"Precinct_Cap": "COLONNADE", "district_id": "MC0148", "total_responses": 0, "mailing_back": 0, "voting_in_person": 0, "not_voting": 0}, "geometry": {"coordinates": [[[[-112.0437124, 33.4947639], [-112.04162610000002, 33.4947775], [-112.0389206, 33.494795], [-112.0345516, 33.494824], [-112.0322996, 33.4948411], [-112.0302462, 33.4948566], [-112.0302146, 33.4948569], [-112.0302146, 33.4948574], [-112.03021569999999, 33.4958563], [-112.0302089, 33.4983865], [-112.0302149, 33.4984474], [-112.0302153, 33.4984519], [-112.0302349, 33.5020804], [-112.0302347, 33.5021782], [-112.0302161, 33.5093335], [-112.0388826, 33.509262], [-112.0443516, 33.5092068], [-112.04437149999998, 33.5075737], [-112.0442395, 33.5063293], [-112.0442112, 33.5062375], [-112.04401930000002, 33.5056147], [-112.0439282, 33.5053194], [-112.0437221, 33.5045349], [-112.0436668, 33.5034769], [-112.0436843, 33.5020774], [-112.0436843, 33.5020766], [-112.0437194, 33.498375], [-112.0437195, 33.4983599], [-112.0436643, 33.4969246], [-112.0436936, 33.4962408], [-112.04371749999999, 33.4958328], [-112.0437414, 33.4953794], [-112.0437676, 33.4947635], [-112.0437124, 33.4947639]]]], "type": "MultiPolygon"}}, {"type": "Feature", "properties": {"Precinct_Cap": "TURNEY", "district_id": "MC0856", "total_responses": 0, "mailing_back": 0, "voting_in_person": 0, "not_voting": 0}, "geometry": {"coordinates": [[[[-112.0737825, 33.503779], [-112.073782, 33.5039048], [-112.0737629, 33.5092941], [-112.0737629, 33.5092959], [-112.0739269, 33.509297], [-112.0781239, 33.509325], [-112.07813409999999, 33.5034973], [-112.07832609999998, 33.5034605], [-112.0791465, 33.5033954], [-112.08004350000002, 33.5032855], [-112.0816404, 33.5030607], [-112.0821826, 33.5030073], [-112.0824488, 33.5029539], [-112.0825894, 33.5029256], [-112.0829536, 33.5028164], [-112.084355, 33.5024093], [-112.0863881, 33.5016616], [-112.08717529999998, 33.5013932], [-112.088127, 33.5011231], [-112.0887684, 33.5009539], [-112.0901557, 33.5007056], [-112.0907963, 33.5006129], [-112.0913098, 33.5005386], [-112.0912966, 33.5021923], [-112.0957525, 33.5022651], [-112.09990489999998, 33.5023327], [-112.0999092, 33.4996609], [-112.0999095, 33.4994882], [-112.0999166, 33.4950566], [-112.0999166, 33.4950376], [-112.0911144, 33.4949592], [-112.0907414, 33.4949559], [-112.0748147, 33.4948125], [-112.0739783, 33.4948049], [-112.0738143, 33.4948034], [-112.0737825, 33.503779]]]], "type": "MultiPolygon"}}, {"type": "Feature", "properties": {"Precinct_Cap": "RANCHO", "district_id": "MC0672", "total_responses": 0, "mailing_back": 0, "voting_in_person": 0, "not_voting": 0}, "geometry": {"coordinates": [[[[-112.0475384, 33.516373], [-112.0475386, 33.5164826], [-112.04772950000002, 33.5164827], [-112.0562492, 33.5164888], [-112.0562495, 33.5164888], [-112.0650075, 33.5164908], [-112.0651462, 33.5164917], [-112.06552870000002, 33.5164943], [-112.07374169999999, 33.5165496], [-112.0737498, 33.5117449], [-112.0737608, 33.509694], [-112.0737629, 33.5092959], [-112.0679187, 33.5092563], [-112.067917, 33.5092562], [-112.0676451, 33.5092544], [-112.0672025, 33.5092514], [-112.065202, 33.5092378], [-112.0650182, 33.5092365], [-112.0650106, 33.5092365], [-112.0566547, 33.5092293], [-112.0562687, 33.5092289], [-112.0530769, 33.509226], [-112.0476528, 33.5092208], [-112.0476334, 33.5092208], [-112.0475254, 33.5092195], [-112.0475384, 33.516373]]]], "type": "MultiPolygon"}}, {"type": "Feature", "properties": {"Precinct_Cap": "GRANADA", "district_id": "MC0328", "total_responses": 0, "mailing_back": 0, "voting_in_person": 0, "not_voting": 0}, "geometry": {"coordinates": [[[[-112.1124951, 33.5095027], [-112.11249490000002, 33.5095079], [-112.1169885, 33.5094698], [-112.1213032, 33.5094599], [-112.12130530000002, 33.5094599], [-112.1247359, 33.5094532], [-112.12558909999998, 33.5094516], [-112.125594, 33.5094516], [-112.1261062, 33.5094506], [-112.1278749, 33.5094471], [-112.1298945, 33.5094431], [-112.1323158, 33.5094382], [-112.1341868, 33.5094567], [-112.13418690000002, 33.5094345], [-112.134223, 33.5022161], [-112.1342716, 33.4950053], [-112.1342563, 33.4950052], [-112.12565870000002, 33.4949563], [-112.1180427, 33.4949714], [-112.1170756, 33.4949733], [-112.1170749, 33.4950932], [-112.1170302, 33.5021996], [-112.11295330000002, 33.5022144], [-112.1124951, 33.5095027]]]], "type": "MultiPolygon"}}, {"type": "Feature", "properties": {"Precinct_Cap": "ACUNA", "district_id": "MC0003", "total_responses": 84, "mailing_back": 64, "voting_in_person": 18, "not_voting": 2}, "geometry": {"coordinates": [[[[-112.1559887, 33.4804823], [-112.1559898, 33.4803351], [-112.1560141, 33.4768488], [-112.1582799, 33.4768592], [-112.1595372, 33.4768649], [-112.1598227, 33.4768662], [-112.1598674, 33.4769164], [-112.160019, 33.4770866], [-112.1600711, 33.4771287], [-112.1601099, 33.4771504], [-112.1601509, 33.477167], [-112.1602158, 33.4771925], [-112.1602651, 33.4772118], [-112.1602838, 33.4772258], [-112.1602945, 33.4772426], [-112.1602978, 33.4772674], [-112.1602934, 33.4773436], [-112.160389, 33.4773442], [-112.1607198, 33.4773462], [-112.1611962, 33.4773392], [-112.1612238, 33.4773384], [-112.16124510000002, 33.4773367], [-112.16128129999998, 33.4773313], [-112.16128489999998, 33.4773305], [-112.1612991, 33.4773275], [-112.1613196, 33.4773222], [-112.1613368, 33.4773169], [-112.1613565, 33.4773098], [-112.1613724, 33.4773029], [-112.1613839, 33.4772979], [-112.1614046, 33.4772873], [-112.1614319, 33.4772708], [-112.161678, 33.4770976], [-112.1619591, 33.4773735], [-112.1616639, 33.4775866], [-112.1612407, 33.4777431], [-112.1612366, 33.477835], [-112.161795, 33.4780606], [-112.16181509999998, 33.4780305], [-112.16183610000002, 33.4780021], [-112.1618586, 33.4779746], [-112.1618827, 33.4779479], [-112.1619081, 33.4779222], [-112.16192730000002, 33.4779046], [-112.1622506, 33.4781552], [-112.16405290000002, 33.4768581], [-112.1640614, 33.476852], [-112.16413049999998, 33.4768023], [-112.1641601, 33.4767929], [-112.1645495, 33.4768516], [-112.1645858, 33.4768571], [-112.1646678, 33.4768695], [-112.164701, 33.4768569], [-112.16470329999999, 33.476856], [-112.16486849999998, 33.476855], [-112.16486989999999, 33.4768566], [-112.1652162, 33.4772339], [-112.1652912, 33.4772003], [-112.1653439, 33.4771857], [-112.1653813, 33.47718], [-112.16901930000002, 33.4771798], [-112.1690223, 33.4768485], [-112.1690542, 33.4732249], [-112.16908229999999, 33.4699888], [-112.1691171, 33.4659836], [-112.1691171, 33.4659793], [-112.1691186, 33.4658157], [-112.1691446, 33.4629891], [-112.1691459, 33.4628479], [-112.1691476, 33.4626574], [-112.16914330000002, 33.4626572], [-112.1603132, 33.4622214], [-112.1518865, 33.461805], [-112.151872, 33.4618043], [-112.15187149999998, 33.4618043], [-112.15183, 33.4618022], [-112.1518126, 33.4659759], [-112.151775, 33.4695364], [-112.151736, 33.4732266], [-112.1517, 33.4769249], [-112.1516966, 33.47728], [-112.1516904, 33.4779167], [-112.1516704, 33.4799713], [-112.1516655, 33.4804726], [-112.1559876, 33.4804823], [-112.1559887, 33.4804823]]]], "type": "MultiPolygon"}}, {"type": "Feature", "properties": {"Precinct_Cap": "MADISON PARK", "district_id": "MC0479", "total_responses": 1, "mailing_back": 1, "voting_in_person": 0, "not_voting": 0}, "geometry": {"coordinates": [[[[-112.04757469999998, 33.5019555], [-112.0476827, 33.5019557], [-112.0477034, 33.5019557], [-112.0477661, 33.5019559], [-112.0563009, 33.5019711], [-112.0563129, 33.4998896], [-112.0563141, 33.4996722], [-112.05634249999999, 33.4947379], [-112.05634249999999, 33.4947378], [-112.0563448, 33.4927555], [-112.0563512, 33.4874417], [-112.0564782, 33.4874422], [-112.0642338, 33.4874733], [-112.0642339, 33.4874733], [-112.0649391, 33.4874761], [-112.0650661, 33.4874766], [-112.0652009, 33.4874777], [-112.0694229, 33.4875096], [-112.0695718, 33.4875108], [-112.0706872, 33.4875192], [-112.0737932, 33.4875426], [-112.0737952, 33.4839696], [-112.0737952, 33.4838768], [-112.0737972, 33.4802534], [-112.0737837, 33.4802533], [-112.0694537, 33.4802292], [-112.0672666, 33.480217], [-112.065221, 33.4802055], [-112.0652158, 33.4802055], [-112.0650898, 33.4802048], [-112.0649576, 33.4802049], [-112.0644666, 33.4802058], [-112.0640558, 33.4802066], [-112.0619978, 33.4802104], [-112.05962850000002, 33.4802148], [-112.0595059, 33.4802151], [-112.0569442, 33.4802197], [-112.0562614, 33.4802209], [-112.0537614, 33.4802235], [-112.0508508, 33.480218], [-112.04985849999998, 33.4802161], [-112.047782, 33.4802121], [-112.04764910000002, 33.4802118], [-112.0476514, 33.4810989], [-112.04765489999998, 33.4824431], [-112.0476557, 33.4827764], [-112.04765770000002, 33.4835495], [-112.0476646, 33.4862225], [-112.0476677, 33.4874359], [-112.0476678, 33.4874701], [-112.04755190000002, 33.487471], [-112.0431053, 33.487506], [-112.0419452, 33.4875151], [-112.0431005, 33.4896162], [-112.043244, 33.4899004], [-112.0433364, 33.4901042], [-112.0434634, 33.4904543], [-112.043713, 33.4912904], [-112.04377209999998, 33.4915661], [-112.0438218, 33.4919219], [-112.0438582, 33.4924006], [-112.0438711, 33.4927059], [-112.0438639, 33.4929951], [-112.0438436, 33.4932333], [-112.0438167, 33.4936572], [-112.0437947, 33.4942266], [-112.0437717, 33.4947082], [-112.0437692, 33.4947618], [-112.0437676, 33.4947635], [-112.0476386, 33.494734], [-112.04757469999998, 33.5019555]]]], "type": "MultiPolygon"}}, {"type": "Feature", "properties": {"Precinct_Cap": "RUBY", "district_id": "MC0712", "total_responses": 0, "mailing_back": 0, "voting_in_person": 0, "not_voting": 0}, "geometry": {"coordinates": [[[[-112.0280034, 33.4803368], [-112.0279832, 33.4803371], [-112.0278588, 33.4803382], [-112.0237177, 33.4803745], [-112.0215657, 33.4803985], [-112.0130614, 33.4804949], [-112.0129266, 33.4804964], [-112.0129552, 33.4878756], [-112.0130004, 33.4952309], [-112.0130081, 33.4952308], [-112.01313369999998, 33.4952282], [-112.0145772, 33.495199], [-112.0196192, 33.4950966], [-112.0216156, 33.495056], [-112.03021069999998, 33.494857], [-112.0302146, 33.4948569], [-112.03021449999999, 33.4947569], [-112.0302117, 33.4922713], [-112.0302091, 33.4899479], [-112.0302082, 33.4891461], [-112.0302065, 33.4875701], [-112.03020490000002, 33.4840449], [-112.0302048, 33.4838641], [-112.0302032, 33.4803162], [-112.0302032, 33.4803073], [-112.0280034, 33.4803368]]]], "type": "MultiPolygon"}}, {"type": "Feature", "properties": {"Precinct_Cap": "HOLIDAY PARK", "district_id": "MC0377", "total_responses": 0, "mailing_back": 0, "voting_in_person": 0, "not_voting": 0}, "geometry": {"coordinates": [[[[-112.1777705, 33.4883856], [-112.17777, 33.4884348], [-112.1777692, 33.4885142], [-112.1776611, 33.4950409], [-112.1862108, 33.4950824], [-112.1864802, 33.4950837], [-112.18636589999998, 33.5094], [-112.1863654, 33.5094658], [-112.1863652, 33.5094892], [-112.1950457, 33.5093739], [-112.2029528, 33.5092682], [-112.20295269999998, 33.5092531], [-112.2030348, 33.5092529], [-112.203166, 33.5092526], [-112.20317310000001, 33.5092524], [-112.20317310000001, 33.5092419], [-112.20317310000001, 33.50924], [-112.20317330000002, 33.5092014], [-112.203198, 33.5020486], [-112.2032126, 33.4992303], [-112.203214, 33.4989554], [-112.20321810000002, 33.4984491], [-112.2032185, 33.4983853], [-112.20323630000001, 33.4948192], [-112.20323630000001, 33.4948127], [-112.2032391, 33.4937963], [-112.2032562, 33.4875819], [-112.20323849999998, 33.4875819], [-112.203224, 33.487582], [-112.203125, 33.4875822], [-112.20001, 33.4876244], [-112.19961229999998, 33.4876297], [-112.19543409999999, 33.4876862], [-112.1914437, 33.4877399], [-112.1864194, 33.4878074], [-112.18620210000002, 33.4878063], [-112.17777949999999, 33.487765], [-112.1777705, 33.4883856]]]], "type": "MultiPolygon"}}, {"type": "Feature", "properties": {"Precinct_Cap": "MARLETTE", "district_id": "MC0493", "total_responses": 0, "mailing_back": 0, "voting_in_person": 0, "not_voting": 0}, "geometry": {"coordinates": [[[[-112.082428, 33.5257449], [-112.08242810000002, 33.525885], [-112.08243, 33.5275367], [-112.082434, 33.5311164], [-112.08243550000002, 33.5317865], [-112.08243869999998, 33.5331631], [-112.0824426, 33.53489], [-112.08244270000002, 33.5349527], [-112.08244270000002, 33.5349528], [-112.0824482, 33.5373801], [-112.082449, 33.5376993], [-112.0824505, 33.5383623], [-112.0911317, 33.5385077], [-112.0995847, 33.5386485], [-112.0995893, 33.5381195], [-112.0996479, 33.5313979], [-112.09971, 33.5241449], [-112.0911607, 33.5240049], [-112.0911586, 33.5240048], [-112.0910299, 33.5240027], [-112.0910256, 33.5240027], [-112.0826858, 33.5238664], [-112.0824332, 33.5238623], [-112.0824258, 33.5238622], [-112.082428, 33.5257449]]]], "type": "MultiPolygon"}}, {"type": "Feature", "properties": {"Precinct_Cap": "RIVERSIDE", "district_id": "MC0694", "total_responses": 0, "mailing_back": 0, "voting_in_person": 0, "not_voting": 0}, "geometry": {"coordinates": [[[[-112.16912030000002, 33.4512487], [-112.1778314, 33.4512548], [-112.18654209999998, 33.4515194], [-112.18654209999998, 33.4515125], [-112.1865541, 33.4463811], [-112.186559, 33.4442717], [-112.1865698, 33.4394994], [-112.1865747, 33.4373315], [-112.18657509999998, 33.4371369], [-112.1865754, 33.4370286], [-112.1865754, 33.437025], [-112.1865743, 33.436758], [-112.1865467, 33.4297821], [-112.1865467, 33.4297749], [-112.18651450000002, 33.4225444], [-112.1865144, 33.4225249], [-112.1953304, 33.4226789], [-112.1953366, 33.422679], [-112.19732750000001, 33.4227114], [-112.2013535, 33.4227769], [-112.2039751, 33.4228194], [-112.2040056, 33.4228199], [-112.2040158, 33.4214368], [-112.2040586, 33.4156008], [-112.2040586, 33.4155998], [-112.2040587, 33.4155973], [-112.2040948, 33.4112702], [-112.2041126, 33.4091339], [-112.204118, 33.4084875], [-112.2041187, 33.408405], [-112.2041185, 33.408311], [-112.2041146, 33.4056433], [-112.204114, 33.4052302], [-112.2041079, 33.4011479], [-112.2041046, 33.401032], [-112.20409089999998, 33.4010318], [-112.201908, 33.4010061], [-112.2018956, 33.401006], [-112.1910155, 33.4003037], [-112.1897966, 33.40047], [-112.1865406, 33.400136], [-112.1860276, 33.400148], [-112.1859931, 33.3999794], [-112.18246870000002, 33.3998382], [-112.1818928, 33.3998151], [-112.1818806, 33.39983], [-112.1818526, 33.399928], [-112.1821726, 33.399983], [-112.1820896, 33.400094], [-112.1818946, 33.400094], [-112.1816996, 33.400025], [-112.1814176, 33.400088], [-112.1812736, 33.400099], [-112.1812566, 33.400043], [-112.1812736, 33.399925], [-112.1811206, 33.399925], [-112.1809366, 33.399884], [-112.1809876, 33.399843], [-112.1812026, 33.399792], [-112.1812042, 33.3997875], [-112.1773594, 33.3996332], [-112.17735989999998, 33.3996403], [-112.17750709999999, 33.4018426], [-112.1776354, 33.4037622], [-112.1745636, 33.4036738], [-112.1732022, 33.4036346], [-112.1732651, 33.4042581], [-112.17346390000002, 33.4062301], [-112.1736232, 33.4078098], [-112.1735836, 33.407894], [-112.1695259, 33.4077744], [-112.1688326, 33.407754], [-112.1685098, 33.4077339], [-112.1595644, 33.4071767], [-112.1509396, 33.406639], [-112.1438858, 33.4066914], [-112.1430754, 33.4066184], [-112.14276449999998, 33.4066175], [-112.142586, 33.4066171], [-112.1423983, 33.4066166], [-112.1422913, 33.4066163], [-112.14210409999998, 33.4066158], [-112.1421046, 33.406696], [-112.142109, 33.4067043], [-112.14212030000002, 33.4067257], [-112.1422416, 33.406955], [-112.1424866, 33.411462], [-112.1431476, 33.41576], [-112.1431692, 33.4159514], [-112.1432536, 33.4167], [-112.1432077, 33.4220662], [-112.1432031, 33.4226068], [-112.143219, 33.4260008], [-112.1432368, 33.4297806], [-112.1432483, 33.4322305], [-112.14327029999998, 33.4369082], [-112.1432701, 33.4369257], [-112.1432518, 33.4391191], [-112.14324229999998, 33.4402665], [-112.1431943, 33.4460135], [-112.14315030000002, 33.4512872], [-112.1431496, 33.4513697], [-112.1431493, 33.4514015], [-112.1461546, 33.4513929], [-112.1517723, 33.4513765], [-112.1517732, 33.4513765], [-112.1517783, 33.4513765], [-112.16028769999998, 33.4513165], [-112.160408, 33.4513156], [-112.1691133, 33.4512487], [-112.16912030000002, 33.4512487]]]], "type": "MultiPolygon"}}, {"type": "Feature", "properties": {"Precinct_Cap": "OREGON", "district_id": "MC0594", "total_responses": 2, "mailing_back": 1, "voting_in_person": 1, "not_voting": 0}, "geometry": {"coordinates": [[[[-112.0737608, 33.509694], [-112.0737498, 33.5117449], [-112.07374169999999, 33.5165496], [-112.07458350000002, 33.5165552], [-112.0824638, 33.5166077], [-112.0910906, 33.5167468], [-112.09121150000001, 33.5167487], [-112.0939067, 33.5167921], [-112.0956054, 33.5168193], [-112.0997972, 33.5168866], [-112.0997973, 33.5168774], [-112.0998376, 33.5132551], [-112.0998897, 33.509632], [-112.0998898, 33.5096251], [-112.09555149999998, 33.5095535], [-112.0912377, 33.5094822], [-112.09123350000002, 33.5094821], [-112.0910589, 33.5094796], [-112.0825043, 33.509354], [-112.08249370000001, 33.509354], [-112.0781239, 33.509325], [-112.0739269, 33.509297], [-112.0737629, 33.5092959], [-112.0737608, 33.509694]]]], "type": "MultiPolygon"}}, {"type": "Feature", "properties": {"Precinct_Cap": "SOLANO", "district_id": "MC0766", "total_responses": 0, "mailing_back": 0, "voting_in_person": 0, "not_voting": 0}, "geometry": {"coordinates": [[[[-112.07374169999999, 33.5165608], [-112.07370869999998, 33.5238037], [-112.0738773, 33.5238049], [-112.0824258, 33.5238622], [-112.0824332, 33.5238623], [-112.0826858, 33.5238664], [-112.0910256, 33.5240027], [-112.0910299, 33.5240027], [-112.0911586, 33.5240048], [-112.0911607, 33.5240049], [-112.09971, 33.5241449], [-112.0997106, 33.5240956], [-112.09971409999999, 33.5238071], [-112.0997609, 33.5199126], [-112.0997972, 33.5168866], [-112.0956054, 33.5168193], [-112.0939067, 33.5167921], [-112.09121150000001, 33.5167487], [-112.0910906, 33.5167468], [-112.0824638, 33.5166077], [-112.07458350000002, 33.5165552], [-112.07374169999999, 33.5165496], [-112.07374169999999, 33.5165608]]]], "type": "MultiPolygon"}}, {"type": "Feature", "properties": {"Precinct_Cap": "LYNWOOD", "district_id": "MC0476", "total_responses": 80, "mailing_back": 58, "voting_in_person": 17, "not_voting": 5}, "geometry": {"coordinates": [[[[-112.1454917, 33.4616291], [-112.144467, 33.4616494], [-112.1437786, 33.4616637], [-112.14315390000002, 33.4616876], [-112.1431296, 33.4616885], [-112.1426158, 33.4617025], [-112.1420903, 33.4617272], [-112.14160809999998, 33.461756], [-112.1412893, 33.461783], [-112.1409119, 33.4618151], [-112.1400325, 33.4619384], [-112.13921369999998, 33.4620656], [-112.13874570000002, 33.4621667], [-112.137988, 33.4623063], [-112.1370148, 33.4624961], [-112.136421, 33.4625895], [-112.1358338, 33.4626587], [-112.13530649999998, 33.4627047], [-112.1348508, 33.4627309], [-112.1345409, 33.4627418], [-112.1344756, 33.4659639], [-112.1344185, 33.4731706], [-112.1517297, 33.4732266], [-112.151736, 33.4732266], [-112.151775, 33.4695364], [-112.1518126, 33.4659759], [-112.15183, 33.4618022], [-112.1509712, 33.4617458], [-112.1489802, 33.4616688], [-112.146826, 33.4616262], [-112.1454917, 33.4616291]]]], "type": "MultiPolygon"}}, {"type": "Feature", "properties": {"Precinct_Cap": "MARIVUE", "district_id": "MC0492", "total_responses": 140, "mailing_back": 85, "voting_in_person": 51, "not_voting": 4}, "geometry": {"coordinates": [[[[-112.176302, 33.4879018], [-112.176745, 33.4880037], [-112.1774602, 33.4883509], [-112.1776491, 33.4884507], [-112.1777473, 33.4885026], [-112.1777692, 33.4885142], [-112.17777, 33.4884348], [-112.1777705, 33.4883856], [-112.17777949999999, 33.487765], [-112.18620210000002, 33.4878063], [-112.1864194, 33.4878074], [-112.1914437, 33.4877399], [-112.1914294, 33.4870173], [-112.19141489999998, 33.4862035], [-112.19141530000002, 33.4861076], [-112.191413, 33.4860643], [-112.1914092, 33.4860212], [-112.1914035, 33.4859754], [-112.1913966, 33.4859325], [-112.19137750000002, 33.4858447], [-112.1913652, 33.4857999], [-112.1913402, 33.4857243], [-112.1913208, 33.4856758], [-112.1912816, 33.4855904], [-112.19126, 33.4855484], [-112.1912383, 33.4855093], [-112.19118910000002, 33.4854291], [-112.1908125, 33.4848184], [-112.19043709999998, 33.4842088], [-112.19005549999999, 33.483585], [-112.1917388, 33.4828547], [-112.1913558, 33.4822308], [-112.1909793, 33.4816218], [-112.19090330000002, 33.4814968], [-112.1908498, 33.4813919], [-112.1908135, 33.4813048], [-112.1907761, 33.4811895], [-112.1907558, 33.4811042], [-112.1907384, 33.4809938], [-112.19073290000001, 33.4809316], [-112.19073190000002, 33.4806276], [-112.19073149999998, 33.4804881], [-112.1863942, 33.4805522], [-112.1863958, 33.4798199], [-112.1864107, 33.4732682], [-112.1778146, 33.4732471], [-112.1690542, 33.4732249], [-112.1690223, 33.4768485], [-112.16901930000002, 33.4771798], [-112.169002, 33.4799347], [-112.1689977, 33.4804944], [-112.1689977, 33.4804945], [-112.1689434, 33.4874796], [-112.16894010000001, 33.4878641], [-112.168939, 33.4879934], [-112.1689405, 33.4879933], [-112.16905210000002, 33.4879925], [-112.169427, 33.4879895], [-112.1718809, 33.4879403], [-112.1758606, 33.4878844], [-112.176302, 33.4879018]]]], "type": "MultiPolygon"}}, {"type": "Feature", "properties": {"Precinct_Cap": "GREENWOOD", "district_id": "MC0338", "total_responses": 0, "mailing_back": 0, "voting_in_person": 0, "not_voting": 0}, "geometry": {"coordinates": [[[[-112.1175019, 33.4510926], [-112.1140469, 33.4511447], [-112.1100572, 33.4512046], [-112.1087966, 33.4512235], [-112.10879070000001, 33.4512236], [-112.10810709999998, 33.4512276], [-112.1019265, 33.451264], [-112.1000836, 33.4512748], [-112.100079, 33.4512748], [-112.1000709, 33.4531325], [-112.100063, 33.4549245], [-112.1000626, 33.4550215], [-112.1000469, 33.4585861], [-112.1000469, 33.4586021], [-112.1000431, 33.4590326], [-112.10003629999999, 33.4598226], [-112.10001590000002, 33.4621874], [-112.10000730000002, 33.4631909], [-112.0999858, 33.4656775], [-112.0999849, 33.4657763], [-112.0999842, 33.4658594], [-112.0999842, 33.4659208], [-112.09998389999998, 33.4680271], [-112.0999832, 33.4732411], [-112.0999834, 33.4750085], [-112.0999842, 33.4805025], [-112.0999842, 33.4805125], [-112.0999842, 33.4806134], [-112.0999842, 33.4806146], [-112.0999842, 33.4806198], [-112.0999897, 33.4806199], [-112.100164, 33.4806216], [-112.10212070000001, 33.4806407], [-112.10426929999998, 33.4806617], [-112.1051758, 33.4806706], [-112.1085301, 33.4807032], [-112.1095836, 33.4806717], [-112.1097887, 33.4806656], [-112.1122921, 33.4805906], [-112.1131291, 33.4805656], [-112.1132046, 33.4805633], [-112.11322049999998, 33.4805628], [-112.1159103, 33.4804702], [-112.1167788, 33.4804403], [-112.1169424, 33.4804347], [-112.11706709999999, 33.4804304], [-112.1170672, 33.480425], [-112.1170672, 33.4804184], [-112.1171116, 33.4732214], [-112.1171223, 33.4708568], [-112.11713129999998, 33.4688743], [-112.1171445, 33.4659528], [-112.1172542, 33.4617515], [-112.11725429999998, 33.4617464], [-112.117302, 33.4599169], [-112.1173336, 33.458707], [-112.11735290000001, 33.4579671], [-112.11738569999999, 33.4567083], [-112.1174191, 33.45543], [-112.1174653, 33.4536573], [-112.1175322, 33.4510922], [-112.1175019, 33.4510926]]]], "type": "MultiPolygon"}}, {"type": "Feature", "properties": {"Precinct_Cap": "PERRY PARK", "district_id": "MC0635", "total_responses": 0, "mailing_back": 0, "voting_in_person": 0, "not_voting": 0}, "geometry": {"coordinates": [[[[-112.0129276, 33.4800422], [-112.0129266, 33.4804964], [-112.0130614, 33.4804949], [-112.0215657, 33.4803985], [-112.0215664, 33.4800054], [-112.0215789, 33.4731722], [-112.0215791, 33.4730813], [-112.0153872, 33.4731087], [-112.01523149999998, 33.4731093], [-112.0152366, 33.47432], [-112.0152276, 33.474421], [-112.0151256, 33.474801], [-112.0151216, 33.474934], [-112.01305870000002, 33.4749278], [-112.01293830000002, 33.4749274], [-112.0129276, 33.4800422]]]], "type": "MultiPolygon"}}, {"type": "Feature", "properties": {"Precinct_Cap": "MARYLAND", "district_id": "MC0496", "total_responses": 0, "mailing_back": 0, "voting_in_person": 0, "not_voting": 0}, "geometry": {"coordinates": [[[[-112.1014065, 33.5313929], [-112.0996479, 33.5313979], [-112.0995893, 33.5381195], [-112.0995847, 33.5386485], [-112.0995984, 33.5386485], [-112.11234530000002, 33.5386233], [-112.1123457, 33.5384538], [-112.1123497, 33.5367599], [-112.1123624, 33.5313382], [-112.1123204, 33.5313382], [-112.1082845, 33.5313409], [-112.10828949999998, 33.5296019], [-112.1039745, 33.5296209], [-112.10396649999998, 33.5313749], [-112.1016845, 33.5313769], [-112.1014065, 33.5313929]]]], "type": "MultiPolygon"}}, {"type": "Feature", "properties": {"Precinct_Cap": "MOYA", "district_id": "MC0540", "total_responses": 0, "mailing_back": 0, "voting_in_person": 0, "not_voting": 0}, "geometry": {"coordinates": [[[[-112.1489802, 33.4616688], [-112.1509712, 33.4617458], [-112.15183, 33.4618022], [-112.15187149999998, 33.4618043], [-112.151872, 33.4618043], [-112.1518865, 33.461805], [-112.1603132, 33.4622214], [-112.16914330000002, 33.4626572], [-112.1691476, 33.4626574], [-112.1691476, 33.4626572], [-112.16918470000002, 33.4586143], [-112.1691133, 33.4512487], [-112.160408, 33.4513156], [-112.16028769999998, 33.4513165], [-112.1517783, 33.4513765], [-112.1517732, 33.4513765], [-112.1517723, 33.4513765], [-112.1461546, 33.4513929], [-112.1431493, 33.4514015], [-112.1431548, 33.4586673], [-112.14315390000002, 33.4616876], [-112.1437786, 33.4616637], [-112.144467, 33.4616494], [-112.1454917, 33.4616291], [-112.146826, 33.4616262], [-112.1489802, 33.4616688]]]], "type": "MultiPolygon"}}, {"type": "Feature", "properties": {"Precinct_Cap": "MADRID", "district_id": "MC0480", "total_responses": 100, "mailing_back": 66, "voting_in_person": 31, "not_voting": 3}, "geometry": {"coordinates": [[[[-112.1131071, 33.4951285], [-112.1130429, 33.500426], [-112.11303929999998, 33.5007223], [-112.1130157, 33.5012176], [-112.11298709999998, 33.5016723], [-112.11295330000002, 33.5022144], [-112.1170302, 33.5021996], [-112.1170749, 33.4950932], [-112.1170756, 33.4949733], [-112.1180427, 33.4949714], [-112.12565870000002, 33.4949563], [-112.1342563, 33.4950052], [-112.1342716, 33.4950053], [-112.1343632, 33.4950052], [-112.1343833, 33.4950051], [-112.1343843, 33.4950051], [-112.1343874, 33.4950051], [-112.14070209999998, 33.4949947], [-112.14075210000001, 33.4949946], [-112.14184629999998, 33.4949928], [-112.14293150000002, 33.4949909], [-112.1429546, 33.4949909], [-112.1429552, 33.4949909], [-112.14297969999998, 33.4949908], [-112.1465373, 33.4949847], [-112.15150909999998, 33.4949761], [-112.151512, 33.4949761], [-112.1516973, 33.4949757], [-112.1516971, 33.4949296], [-112.1516964, 33.4948056], [-112.1516572, 33.4877224], [-112.1516571, 33.4877053], [-112.1516586, 33.486975], [-112.1516586, 33.4869749], [-112.15166270000002, 33.4831006], [-112.1516655, 33.4804926], [-112.1516655, 33.4804726], [-112.1516566, 33.4804727], [-112.1514489, 33.4804729], [-112.1472962, 33.4804773], [-112.14437350000001, 33.4804803], [-112.1429642, 33.4804817], [-112.1429582, 33.4804817], [-112.1407616, 33.4804702], [-112.1383925, 33.4804578], [-112.1345774, 33.4804377], [-112.1343719, 33.4804366], [-112.13436930000002, 33.4804366], [-112.125711, 33.480436], [-112.1247798, 33.4804355], [-112.11921710000001, 33.4804318], [-112.1186069, 33.4804314], [-112.117723, 33.4804308], [-112.1173756, 33.4804306], [-112.11706709999999, 33.4804304], [-112.1169424, 33.4804347], [-112.1167788, 33.4804403], [-112.1159103, 33.4804702], [-112.11322049999998, 33.4805628], [-112.1131968, 33.4877234], [-112.1131071, 33.4951285]]]], "type": "MultiPolygon"}}, {"type": "Feature", "properties": {"Precinct_Cap": "XAVIER", "district_id": "MC0928", "total_responses": 41, "mailing_back": 23, "voting_in_person": 18, "not_voting": 0}, "geometry": {"coordinates": [[[[-112.0676451, 33.5092544], [-112.067917, 33.5092562], [-112.0679187, 33.5092563], [-112.0737629, 33.5092959], [-112.0737629, 33.5092941], [-112.073782, 33.5039048], [-112.0733298, 33.5038538], [-112.0713688, 33.503748], [-112.0702473, 33.5036244], [-112.06732970000002, 33.5031332], [-112.06637489999999, 33.5028996], [-112.06574849999998, 33.5027047], [-112.0656708, 33.5026806], [-112.0651971, 33.5025154], [-112.0650391, 33.5024602], [-112.0650376, 33.5024598], [-112.0650374, 33.5024596], [-112.06460429999998, 33.5023532], [-112.0639794, 33.5022642], [-112.0624084, 33.5021614], [-112.06173, 33.5020874], [-112.0584084, 33.5011342], [-112.0563129, 33.4998896], [-112.0563009, 33.5019711], [-112.0477661, 33.5019559], [-112.0477034, 33.5019557], [-112.0476827, 33.5019557], [-112.04757469999998, 33.5019555], [-112.047574, 33.5020618], [-112.0475254, 33.5092195], [-112.0476334, 33.5092208], [-112.0476528, 33.5092208], [-112.0530769, 33.509226], [-112.0562687, 33.5092289], [-112.0566547, 33.5092293], [-112.0650106, 33.5092365], [-112.0650182, 33.5092365], [-112.065202, 33.5092378], [-112.0672025, 33.5092514], [-112.0676451, 33.5092544]]]], "type": "MultiPolygon"}}, {"type": "Feature", "properties": {"Precinct_Cap": "HOLMES", "district_id": "MC0381", "total_responses": 139, "mailing_back": 95, "voting_in_person": 35, "not_voting": 9}, "geometry": {"coordinates": [[[[-112.1602679, 33.4949453], [-112.1688806, 33.4949559], [-112.1688806, 33.4949479], [-112.168939, 33.4879934], [-112.16894010000001, 33.4878641], [-112.1689434, 33.4874796], [-112.1689977, 33.4804945], [-112.1689977, 33.4804944], [-112.169002, 33.4799347], [-112.16901930000002, 33.4771798], [-112.1653813, 33.47718], [-112.1653439, 33.4771857], [-112.1652912, 33.4772003], [-112.1652162, 33.4772339], [-112.16486989999999, 33.4768566], [-112.16486849999998, 33.476855], [-112.16470329999999, 33.476856], [-112.164701, 33.4768569], [-112.1646678, 33.4768695], [-112.1645858, 33.4768571], [-112.1645495, 33.4768516], [-112.1641601, 33.4767929], [-112.16413049999998, 33.4768023], [-112.1640614, 33.476852], [-112.16405290000002, 33.4768581], [-112.1622506, 33.4781552], [-112.16192730000002, 33.4779046], [-112.1619081, 33.4779222], [-112.1618827, 33.4779479], [-112.1618586, 33.4779746], [-112.16183610000002, 33.4780021], [-112.16181509999998, 33.4780305], [-112.161795, 33.4780606], [-112.1612366, 33.477835], [-112.1612407, 33.4777431], [-112.1616639, 33.4775866], [-112.1619591, 33.4773735], [-112.161678, 33.4770976], [-112.1614319, 33.4772708], [-112.1614046, 33.4772873], [-112.1613839, 33.4772979], [-112.1613724, 33.4773029], [-112.1613565, 33.4773098], [-112.1613368, 33.4773169], [-112.1613196, 33.4773222], [-112.1612991, 33.4773275], [-112.16128489999998, 33.4773305], [-112.16128129999998, 33.4773313], [-112.16124510000002, 33.4773367], [-112.1612238, 33.4773384], [-112.1611962, 33.4773392], [-112.1607198, 33.4773462], [-112.160389, 33.4773442], [-112.1602934, 33.4773436], [-112.1602978, 33.4772674], [-112.1602945, 33.4772426], [-112.1602838, 33.4772258], [-112.1602651, 33.4772118], [-112.1602158, 33.4771925], [-112.1601509, 33.477167], [-112.1601099, 33.4771504], [-112.1600711, 33.4771287], [-112.160019, 33.4770866], [-112.1598674, 33.4769164], [-112.1598227, 33.4768662], [-112.1595372, 33.4768649], [-112.1582799, 33.4768592], [-112.1560141, 33.4768488], [-112.1559898, 33.4803351], [-112.1559887, 33.4804823], [-112.1559876, 33.4804823], [-112.1516655, 33.4804726], [-112.1516655, 33.4804926], [-112.15166270000002, 33.4831006], [-112.1516586, 33.4869749], [-112.1516586, 33.486975], [-112.1516571, 33.4877053], [-112.1516572, 33.4877224], [-112.1516964, 33.4948056], [-112.1516971, 33.4949296], [-112.1516973, 33.4949757], [-112.1519635, 33.4949753], [-112.15596229999998, 33.4949681], [-112.157581, 33.4949652], [-112.1580176, 33.4949644], [-112.1601367, 33.4949396], [-112.1602679, 33.4949453]]]], "type": "MultiPolygon"}}, {"type": "Feature", "properties": {"Precinct_Cap": "ALHAMBRA", "district_id": "MC0013", "total_responses": 0, "mailing_back": 0, "voting_in_person": 0, "not_voting": 0}, "geometry": {"coordinates": [[[[-112.134223, 33.5022161], [-112.13418690000002, 33.5094345], [-112.1341868, 33.5094567], [-112.1342056, 33.5094566], [-112.1343284, 33.5094565], [-112.14140150000001, 33.5094492], [-112.14172250000001, 33.5094488], [-112.1427472, 33.5094477], [-112.1428788, 33.5094476], [-112.1513576, 33.5094563], [-112.15154669999998, 33.5094565], [-112.15154789999998, 33.5093266], [-112.15155070000002, 33.5090084], [-112.1516112, 33.5021949], [-112.1516973, 33.4949757], [-112.151512, 33.4949761], [-112.15150909999998, 33.4949761], [-112.1465373, 33.4949847], [-112.14297969999998, 33.4949908], [-112.1429552, 33.4949909], [-112.1429546, 33.4949909], [-112.14293150000002, 33.4949909], [-112.14184629999998, 33.4949928], [-112.14075210000001, 33.4949946], [-112.14070209999998, 33.4949947], [-112.1343874, 33.4950051], [-112.1343843, 33.4950051], [-112.1343833, 33.4950051], [-112.1343632, 33.4950052], [-112.1342716, 33.4950053], [-112.134223, 33.5022161]]]], "type": "MultiPolygon"}}, {"type": "Feature", "properties": {"Precinct_Cap": "HOLLYHOCK", "district_id": "MC0380", "total_responses": 0, "mailing_back": 0, "voting_in_person": 0, "not_voting": 0}, "geometry": {"coordinates": [[[[-112.2032391, 33.4937963], [-112.20323630000001, 33.4948127], [-112.20323630000001, 33.4948192], [-112.20545090000002, 33.4947965], [-112.20923530000002, 33.4947739], [-112.21190430000001, 33.4947579], [-112.2119257, 33.4947578], [-112.2119258, 33.4947578], [-112.2119258, 33.4947335], [-112.2119258, 33.4944109], [-112.21192589999998, 33.4933622], [-112.211926, 33.4929394], [-112.211926, 33.4928227], [-112.211926, 33.4927982], [-112.211926, 33.492444], [-112.21192609999999, 33.4916608], [-112.21192609999999, 33.4915482], [-112.21192609999999, 33.4911272], [-112.21192609999999, 33.490959], [-112.2119262, 33.4907361], [-112.2119262, 33.4897928], [-112.21192630000002, 33.4896098], [-112.2119264, 33.4879986], [-112.2119264, 33.4874992], [-112.2119264, 33.4874943], [-112.2119265, 33.4872791], [-112.2119265, 33.486829], [-112.2119266, 33.4861572], [-112.2119266, 33.4853958], [-112.2119266, 33.4851376], [-112.2119268, 33.4835844], [-112.2119269, 33.4821765], [-112.21191869999998, 33.4803807], [-112.2119183, 33.4802738], [-112.2119183, 33.4802707], [-112.2032768, 33.4803432], [-112.2031405, 33.4803448], [-112.19073149999998, 33.4804881], [-112.19073190000002, 33.4806276], [-112.19073290000001, 33.4809316], [-112.1907384, 33.4809938], [-112.1907558, 33.4811042], [-112.1907761, 33.4811895], [-112.1908135, 33.4813048], [-112.1908498, 33.4813919], [-112.19090330000002, 33.4814968], [-112.1909793, 33.4816218], [-112.1913558, 33.4822308], [-112.1917388, 33.4828547], [-112.19005549999999, 33.483585], [-112.19043709999998, 33.4842088], [-112.1908125, 33.4848184], [-112.19118910000002, 33.4854291], [-112.1912383, 33.4855093], [-112.19126, 33.4855484], [-112.1912816, 33.4855904], [-112.1913208, 33.4856758], [-112.1913402, 33.4857243], [-112.1913652, 33.4857999], [-112.19137750000002, 33.4858447], [-112.1913966, 33.4859325], [-112.1914035, 33.4859754], [-112.1914092, 33.4860212], [-112.191413, 33.4860643], [-112.19141530000002, 33.4861076], [-112.19141489999998, 33.4862035], [-112.1914294, 33.4870173], [-112.1914437, 33.4877399], [-112.19543409999999, 33.4876862], [-112.19961229999998, 33.4876297], [-112.20001, 33.4876244], [-112.203125, 33.4875822], [-112.203224, 33.487582], [-112.20323849999998, 33.4875819], [-112.2032562, 33.4875819], [-112.2032391, 33.4937963]]]], "type": "MultiPolygon"}}, {"type": "Feature", "properties": {"Precinct_Cap": "ENCANTO", "district_id": "MC0261", "total_responses": 0, "mailing_back": 0, "voting_in_person": 0, "not_voting": 0}, "geometry": {"coordinates": [[[[-112.09797129999998, 33.4586187], [-112.097969, 33.4586187], [-112.0955552, 33.4586381], [-112.0935622, 33.458654], [-112.0912825, 33.4586722], [-112.0912632, 33.4586724], [-112.089099, 33.458676], [-112.0870031, 33.4586795], [-112.0825662, 33.4586868], [-112.0825664, 33.4587016], [-112.082576, 33.4593494], [-112.0825779, 33.4594772], [-112.0825841, 33.4598899], [-112.08258589999998, 33.4600124], [-112.082619, 33.4622419], [-112.08264950000002, 33.464294], [-112.0826546, 33.464637], [-112.0826722, 33.4658177], [-112.0826724, 33.4658335], [-112.08275650000002, 33.4694717], [-112.082821, 33.4722639], [-112.0828387, 33.4730299], [-112.0828407, 33.4731048], [-112.0829609, 33.4777008], [-112.0829586, 33.4777907], [-112.08290370000002, 33.4799105], [-112.0828924, 33.4803493], [-112.0830362, 33.4803516], [-112.084819, 33.4803798], [-112.0869975, 33.4804145], [-112.0891948, 33.4804489], [-112.0893788, 33.4804518], [-112.0912028, 33.4804806], [-112.09120690000002, 33.4804807], [-112.0913878, 33.4804835], [-112.0924077, 33.4804997], [-112.0935752, 33.4805183], [-112.0957635, 33.4805567], [-112.0978754, 33.480589], [-112.0999786, 33.4806197], [-112.0999842, 33.4806198], [-112.0999842, 33.4806146], [-112.0999842, 33.4806134], [-112.0999842, 33.4805125], [-112.0999842, 33.4805025], [-112.0999834, 33.4750085], [-112.0999832, 33.4732411], [-112.09998389999998, 33.4680271], [-112.0999842, 33.4659208], [-112.0999842, 33.4658594], [-112.0999849, 33.4657763], [-112.0999858, 33.4656775], [-112.10000730000002, 33.4631909], [-112.10001590000002, 33.4621874], [-112.10003629999999, 33.4598226], [-112.1000431, 33.4590326], [-112.1000469, 33.4586021], [-112.09797129999998, 33.4586187]]]], "type": "MultiPolygon"}}, {"type": "Feature", "properties": {"Precinct_Cap": "SILVERADO", "district_id": "MC0761", "total_responses": 0, "mailing_back": 0, "voting_in_person": 0, "not_voting": 0}, "geometry": {"coordinates": [[[[-112.09994989999998, 33.4878305], [-112.0999498, 33.4878357], [-112.0999251, 33.4932], [-112.0999166, 33.4950376], [-112.0999166, 33.4950566], [-112.0999095, 33.4994882], [-112.0999092, 33.4996609], [-112.09990489999998, 33.5023327], [-112.0999012, 33.5041363], [-112.09989, 33.5095152], [-112.0998898, 33.5096251], [-112.1000295, 33.5096239], [-112.1084452, 33.5095481], [-112.1123764, 33.5095091], [-112.11249490000002, 33.5095079], [-112.1124951, 33.5095027], [-112.11295330000002, 33.5022144], [-112.11298709999998, 33.5016723], [-112.1130157, 33.5012176], [-112.11303929999998, 33.5007223], [-112.1130429, 33.500426], [-112.1131071, 33.4951285], [-112.1131968, 33.4877234], [-112.11322049999998, 33.4805628], [-112.1132046, 33.4805633], [-112.1131291, 33.4805656], [-112.1122921, 33.4805906], [-112.1097887, 33.4806656], [-112.1095836, 33.4806717], [-112.1085301, 33.4807032], [-112.1051758, 33.4806706], [-112.10426929999998, 33.4806617], [-112.10212070000001, 33.4806407], [-112.100164, 33.4806216], [-112.0999897, 33.4806199], [-112.0999842, 33.4806198], [-112.09994989999998, 33.4878305]]]], "type": "MultiPolygon"}}, {"type": "Feature", "properties": {"Precinct_Cap": "HARRISON", "district_id": "MC0354", "total_responses": 0, "mailing_back": 0, "voting_in_person": 0, "not_voting": 0}, "geometry": {"coordinates": [[[[-112.1173148, 33.436811], [-112.11751569999998, 33.4439005], [-112.1175191, 33.4453643], [-112.1175322, 33.4510922], [-112.1175325, 33.4510922], [-112.11766, 33.451096], [-112.126035, 33.4513463], [-112.1302818, 33.4513857], [-112.13039890000002, 33.4513867], [-112.1345244, 33.4514249], [-112.1345286, 33.4514249], [-112.13465870000002, 33.4514246], [-112.1388224, 33.4514133], [-112.1431286, 33.4514016], [-112.1431493, 33.4514015], [-112.1431496, 33.4513697], [-112.14315030000002, 33.4512872], [-112.1431943, 33.4460135], [-112.14324229999998, 33.4402665], [-112.1432518, 33.4391191], [-112.1432701, 33.4369257], [-112.14327029999998, 33.4369082], [-112.1432483, 33.4322305], [-112.1432368, 33.4297806], [-112.1345566, 33.4296611], [-112.11718770000002, 33.4295751], [-112.1173148, 33.436811]]]], "type": "MultiPolygon"}}, {"type": "Feature", "properties": {"Precinct_Cap": "HOLLY", "district_id": "MC0379", "total_responses": 0, "mailing_back": 0, "voting_in_person": 0, "not_voting": 0}, "geometry": {"coordinates": [[[[-111.9955588, 33.4722915], [-111.9955555, 33.473071], [-112.0031304, 33.4730924], [-112.0129278, 33.4731194], [-112.0129278, 33.4731185], [-112.0129315, 33.465744], [-112.0129272, 33.465744], [-112.0085956, 33.4657291], [-112.0085926, 33.467949], [-112.0064676, 33.467938], [-112.0064226, 33.467949], [-112.0063906, 33.467963], [-112.0063486, 33.467985], [-112.0063176, 33.46799], [-112.0054316, 33.467988], [-112.0052516, 33.467994], [-112.0052236, 33.468002], [-112.0051856, 33.468029], [-112.0051676, 33.468056], [-112.0051626, 33.468077], [-112.0051536, 33.46873], [-112.0048766, 33.468745], [-112.0042258, 33.468749], [-112.0042266, 33.471233], [-112.0031494, 33.4712311], [-111.9955634, 33.4712177], [-111.9955588, 33.4722915]]]], "type": "MultiPolygon"}}, {"type": "Feature", "properties": {"Precinct_Cap": "CREIGHTON", "district_id": "MC0183", "total_responses": 63, "mailing_back": 49, "voting_in_person": 14, "not_voting": 0}, "geometry": {"coordinates": [[[[-112.0215789, 33.4731722], [-112.0215664, 33.4800054], [-112.0215657, 33.4803985], [-112.0237177, 33.4803745], [-112.0278588, 33.4803382], [-112.0279832, 33.4803371], [-112.0280034, 33.4803368], [-112.0302032, 33.4803073], [-112.03021209999999, 33.4803073], [-112.0303345, 33.4803066], [-112.0342104, 33.4802864], [-112.0342923, 33.480286], [-112.0383881, 33.4802645], [-112.03836590000002, 33.4801667], [-112.0383656, 33.4801642], [-112.0383397, 33.4799488], [-112.0382131, 33.4788961], [-112.0382121, 33.4781772], [-112.0383517, 33.4768177], [-112.0383518, 33.4768165], [-112.03843650000002, 33.4757803], [-112.0384366, 33.4757797], [-112.0384366, 33.4757793], [-112.0385512, 33.4740997], [-112.0385513, 33.4740993], [-112.0385513, 33.4740992], [-112.0385452, 33.4729763], [-112.0385958, 33.469578], [-112.0385286, 33.469104], [-112.0383612, 33.4683049], [-112.03815550000002, 33.4675058], [-112.0381546, 33.467149], [-112.03815149999998, 33.465865], [-112.0381504, 33.4658037], [-112.0381498, 33.4657731], [-112.03813089999998, 33.4657731], [-112.03474669999999, 33.4657715], [-112.0342515, 33.4657713], [-112.0302711, 33.4657693], [-112.0302239, 33.4657693], [-112.03016250000002, 33.4657693], [-112.0216125, 33.4657626], [-112.02159410000002, 33.4657625], [-112.0160954, 33.4657508], [-112.01306209999998, 33.4657443], [-112.0129315, 33.465744], [-112.0129278, 33.4731185], [-112.0129278, 33.4731194], [-112.013059, 33.4731189], [-112.01523149999998, 33.4731093], [-112.0153872, 33.4731087], [-112.0215791, 33.4730813], [-112.0215789, 33.4731722]]]], "type": "MultiPolygon"}}, {"type": "Feature", "properties": {"Precinct_Cap": "CORDOVA", "district_id": "MC0165", "total_responses": 0, "mailing_back": 0, "voting_in_person": 0, "not_voting": 0}, "geometry": {"coordinates": [[[[-112.1255948, 33.5167386], [-112.1255931, 33.5240038], [-112.1342649, 33.5239793], [-112.13426789999998, 33.5239793], [-112.13423269999998, 33.5167069], [-112.1341868, 33.5094567], [-112.1323158, 33.5094382], [-112.1298945, 33.5094431], [-112.1278749, 33.5094471], [-112.1261062, 33.5094506], [-112.125594, 33.5094516], [-112.12558909999998, 33.5094516], [-112.1247359, 33.5094532], [-112.12130530000002, 33.5094599], [-112.1213032, 33.5094599], [-112.1212973, 33.5111385], [-112.1212973, 33.5111388], [-112.1212969, 33.5112501], [-112.12129, 33.5131955], [-112.1212839, 33.5149207], [-112.12128069999999, 33.5158335], [-112.12127730000002, 33.5167918], [-112.1255948, 33.5167386]]]], "type": "MultiPolygon"}}, {"type": "Feature", "properties": {"Precinct_Cap": "GATEWAY", "district_id": "MC0304", "total_responses": 0, "mailing_back": 0, "voting_in_person": 0, "not_voting": 0}, "geometry": {"coordinates": [[[[-112.0129315, 33.465744], [-112.01306209999998, 33.4657443], [-112.0160954, 33.4657508], [-112.02159410000002, 33.4657625], [-112.0216125, 33.4657626], [-112.03016250000002, 33.4657693], [-112.0302239, 33.4657693], [-112.0302711, 33.4657693], [-112.0302658, 33.4648047], [-112.0302658, 33.4648035], [-112.0302568, 33.463196], [-112.03023869999998, 33.4599167], [-112.0302314, 33.458603], [-112.0302234, 33.4571254], [-112.0302016, 33.457128], [-112.0215633, 33.45707], [-112.0215606, 33.45707], [-112.0172526, 33.45706], [-112.0172518, 33.4567624], [-112.0172466, 33.454955], [-112.0172353, 33.4549549], [-112.0133638, 33.4549339], [-112.0129152, 33.4549315], [-112.0129152, 33.4549344], [-112.0129171, 33.4563494], [-112.0129202, 33.4585459], [-112.01292109999999, 33.4590406], [-112.0129286, 33.4633899], [-112.0129272, 33.465744], [-112.0129315, 33.465744]]]], "type": "MultiPolygon"}}, {"type": "Feature", "properties": {"Precinct_Cap": "PARADA", "district_id": "MC0615", "total_responses": 0, "mailing_back": 0, "voting_in_person": 0, "not_voting": 0}, "geometry": {"coordinates": [[[[-112.0907963, 33.5006129], [-112.0901557, 33.5007056], [-112.0887684, 33.5009539], [-112.088127, 33.5011231], [-112.08717529999998, 33.5013932], [-112.0863881, 33.5016616], [-112.084355, 33.5024093], [-112.0829536, 33.5028164], [-112.0825894, 33.5029256], [-112.0824488, 33.5029539], [-112.0821826, 33.5030073], [-112.0816404, 33.5030607], [-112.08004350000002, 33.5032855], [-112.0791465, 33.5033954], [-112.07832609999998, 33.5034605], [-112.07813409999999, 33.5034973], [-112.0781239, 33.509325], [-112.08249370000001, 33.509354], [-112.0825043, 33.509354], [-112.0910589, 33.5094796], [-112.09123350000002, 33.5094821], [-112.0912377, 33.5094822], [-112.09555149999998, 33.5095535], [-112.0998898, 33.5096251], [-112.09989, 33.5095152], [-112.0999012, 33.5041363], [-112.09990489999998, 33.5023327], [-112.0957525, 33.5022651], [-112.0912966, 33.5021923], [-112.0913098, 33.5005386], [-112.0907963, 33.5006129]]]], "type": "MultiPolygon"}}, {"type": "Feature", "properties": {"Precinct_Cap": "CULVER", "district_id": "MC0191", "total_responses": 0, "mailing_back": 0, "voting_in_person": 0, "not_voting": 0}, "geometry": {"coordinates": [[[[-112.16908229999999, 33.4699888], [-112.1690542, 33.4732249], [-112.1778146, 33.4732471], [-112.1864107, 33.4732682], [-112.18642830000002, 33.4659832], [-112.1777705, 33.4659849], [-112.1776965, 33.4659849], [-112.1691171, 33.4659836], [-112.16908229999999, 33.4699888]]]], "type": "MultiPolygon"}}, {"type": "Feature", "properties": {"Precinct_Cap": "CAMBRIDGE", "district_id": "MC0094", "total_responses": 2, "mailing_back": 2, "voting_in_person": 0, "not_voting": 0}, "geometry": {"coordinates": [[[[-112.0385513, 33.4740992], [-112.0385513, 33.4740993], [-112.0385512, 33.4740997], [-112.0384366, 33.4757793], [-112.0384366, 33.4757797], [-112.03843650000002, 33.4757803], [-112.0383518, 33.4768165], [-112.0383517, 33.4768177], [-112.0382121, 33.4781772], [-112.0382131, 33.4788961], [-112.0383397, 33.4799488], [-112.0383656, 33.4801642], [-112.03836590000002, 33.4801667], [-112.0383881, 33.4802645], [-112.0384236, 33.4802643], [-112.0389175, 33.4802617], [-112.04377490000002, 33.480234], [-112.0452928, 33.4802253], [-112.0454968, 33.4802242], [-112.0476446, 33.4802119], [-112.04764910000002, 33.4802118], [-112.04764910000002, 33.4802057], [-112.04764910000002, 33.4802041], [-112.04765009999998, 33.4797825], [-112.04765009999998, 33.4797776], [-112.0476653, 33.4729928], [-112.04492609999998, 33.4729879], [-112.0389449, 33.472977], [-112.0385452, 33.4729763], [-112.0385513, 33.4740992]]]], "type": "MultiPolygon"}}, {"type": "Feature", "properties": {"Precinct_Cap": "ISAAC", "district_id": "MC0397", "total_responses": 0, "mailing_back": 0, "voting_in_person": 0, "not_voting": 0}, "geometry": {"coordinates": [[[[-112.1171445, 33.4659528], [-112.11713129999998, 33.4688743], [-112.1171223, 33.4708568], [-112.1171116, 33.4732214], [-112.1170672, 33.4804184], [-112.1170672, 33.480425], [-112.11706709999999, 33.4804304], [-112.1173756, 33.4804306], [-112.117723, 33.4804308], [-112.1186069, 33.4804314], [-112.11921710000001, 33.4804318], [-112.1247798, 33.4804355], [-112.125711, 33.480436], [-112.13436930000002, 33.4804366], [-112.1343728, 33.4799165], [-112.1344185, 33.4731706], [-112.1344756, 33.4659639], [-112.1345409, 33.4627418], [-112.1339954, 33.4627509], [-112.1329546, 33.4627424], [-112.1322255, 33.4626772], [-112.1320176, 33.4626557], [-112.13150670000002, 33.4626027], [-112.1307861, 33.4624885], [-112.1302046, 33.4623683], [-112.1283654, 33.4620784], [-112.1272911, 33.4619658], [-112.1263096, 33.4618903], [-112.1258678, 33.4618723], [-112.1258584, 33.4618719], [-112.12529609999999, 33.4618489], [-112.1242752, 33.4618364], [-112.12250670000002, 33.4618143], [-112.1207224, 33.4617923], [-112.1194214, 33.461777], [-112.1172542, 33.4617515], [-112.1171445, 33.4659528]]]], "type": "MultiPolygon"}}, {"type": "Feature", "properties": {"Precinct_Cap": "WILSHIRE", "district_id": "MC0920", "total_responses": 47, "mailing_back": 41, "voting_in_person": 6, "not_voting": 0}, "geometry": {"coordinates": [[[[-112.0738386, 33.4586787], [-112.07383649999998, 33.4593613], [-112.0738325, 33.4606485], [-112.0738294, 33.4616415], [-112.0738285, 33.4620661], [-112.0738285, 33.4620685], [-112.0738264, 33.463065], [-112.0738208, 33.4657431], [-112.0737924, 33.471152], [-112.0737934, 33.4729989], [-112.07379389999998, 33.4739881], [-112.07379430000002, 33.4748167], [-112.0737952, 33.4765625], [-112.07379530000001, 33.4766474], [-112.07379530000001, 33.4766536], [-112.0737971, 33.4800657], [-112.0737972, 33.4802534], [-112.0739654, 33.4802551], [-112.0748914, 33.4802649], [-112.08181849999998, 33.480338], [-112.0828924, 33.4803493], [-112.08290370000002, 33.4799105], [-112.0829586, 33.4777907], [-112.0829609, 33.4777008], [-112.0828407, 33.4731048], [-112.0828387, 33.4730299], [-112.082821, 33.4722639], [-112.08275650000002, 33.4694717], [-112.0826724, 33.4658335], [-112.0826722, 33.4658177], [-112.0826546, 33.464637], [-112.08264950000002, 33.464294], [-112.082619, 33.4622419], [-112.08258589999998, 33.4600124], [-112.0825841, 33.4598899], [-112.0825779, 33.4594772], [-112.082576, 33.4593494], [-112.0825664, 33.4587016], [-112.0825662, 33.4586868], [-112.082563, 33.4586868], [-112.082556, 33.4586867], [-112.0777821, 33.4586735], [-112.0757048, 33.4586677], [-112.074015, 33.4586629], [-112.0738387, 33.4586624], [-112.0738386, 33.4586787]]]], "type": "MultiPolygon"}}, {"type": "Feature", "properties": {"Precinct_Cap": "WHITTIER", "district_id": "MC0905", "total_responses": 0, "mailing_back": 0, "voting_in_person": 0, "not_voting": 0}, "geometry": {"coordinates": [[[[-112.0520155, 33.4729863], [-112.0520158, 33.4730282], [-112.052037, 33.4730281], [-112.05638489999998, 33.4730247], [-112.0563848, 33.4729797], [-112.0563783, 33.4712069], [-112.05638869999999, 33.4693703], [-112.056409, 33.4657498], [-112.056346, 33.46575], [-112.052036, 33.4657623], [-112.0498488, 33.4657684], [-112.0476892, 33.4657745], [-112.0476834, 33.4657745], [-112.04550749999999, 33.4657743], [-112.0432468, 33.465774], [-112.04238469999999, 33.4657739], [-112.0390171, 33.4657735], [-112.0381498, 33.4657731], [-112.0381504, 33.4658037], [-112.03815149999998, 33.465865], [-112.0381546, 33.467149], [-112.03815550000002, 33.4675058], [-112.0383612, 33.4683049], [-112.0385286, 33.469104], [-112.0385958, 33.469578], [-112.0385452, 33.4729763], [-112.0389449, 33.472977], [-112.04492609999998, 33.4729879], [-112.0476653, 33.4729928], [-112.0520151, 33.4729324], [-112.0520155, 33.4729863]]]], "type": "MultiPolygon"}}, {"type": "Feature", "properties": {"Precinct_Cap": "PARK CENTRAL", "district_id": "MC0618", "total_responses": 1, "mailing_back": 0, "voting_in_person": 0, "not_voting": 1}, "geometry": {"coordinates": [[[[-112.0737952, 33.4838768], [-112.0737952, 33.4839696], [-112.0737932, 33.4875426], [-112.0738024, 33.4907049], [-112.0738143, 33.4948034], [-112.0739783, 33.4948049], [-112.0748147, 33.4948125], [-112.0907414, 33.4949559], [-112.0911144, 33.4949592], [-112.0999166, 33.4950376], [-112.0999251, 33.4932], [-112.0999498, 33.4878357], [-112.09994989999998, 33.4878305], [-112.0999842, 33.4806198], [-112.0999786, 33.4806197], [-112.0978754, 33.480589], [-112.0957635, 33.4805567], [-112.0935752, 33.4805183], [-112.0924077, 33.4804997], [-112.0913878, 33.4804835], [-112.09120690000002, 33.4804807], [-112.0912028, 33.4804806], [-112.0893788, 33.4804518], [-112.0891948, 33.4804489], [-112.0869975, 33.4804145], [-112.084819, 33.4803798], [-112.0830362, 33.4803516], [-112.0828924, 33.4803493], [-112.08181849999998, 33.480338], [-112.0748914, 33.4802649], [-112.0739654, 33.4802551], [-112.0737972, 33.4802534], [-112.0737952, 33.4838768]]]], "type": "MultiPolygon"}}, {"type": "Feature", "properties": {"Precinct_Cap": "HAYDEN HIGH", "district_id": "MC0360", "total_responses": 88, "mailing_back": 52, "voting_in_person": 34, "not_voting": 2}, "geometry": {"coordinates": [[[[-112.1174653, 33.4536573], [-112.1174191, 33.45543], [-112.11738569999999, 33.4567083], [-112.11735290000001, 33.4579671], [-112.1173336, 33.458707], [-112.117302, 33.4599169], [-112.11725429999998, 33.4617464], [-112.1172542, 33.4617515], [-112.1194214, 33.461777], [-112.1207224, 33.4617923], [-112.12250670000002, 33.4618143], [-112.1242752, 33.4618364], [-112.12529609999999, 33.4618489], [-112.1258584, 33.4618719], [-112.1258678, 33.4618723], [-112.1263096, 33.4618903], [-112.1272911, 33.4619658], [-112.1283654, 33.4620784], [-112.1302046, 33.4623683], [-112.1307861, 33.4624885], [-112.13150670000002, 33.4626027], [-112.1320176, 33.4626557], [-112.1322255, 33.4626772], [-112.1329546, 33.4627424], [-112.1339954, 33.4627509], [-112.1345409, 33.4627418], [-112.1348508, 33.4627309], [-112.13530649999998, 33.4627047], [-112.1358338, 33.4626587], [-112.136421, 33.4625895], [-112.1370148, 33.4624961], [-112.137988, 33.4623063], [-112.13874570000002, 33.4621667], [-112.13921369999998, 33.4620656], [-112.1400325, 33.4619384], [-112.1409119, 33.4618151], [-112.1412893, 33.461783], [-112.14160809999998, 33.461756], [-112.1420903, 33.4617272], [-112.1426158, 33.4617025], [-112.1431296, 33.4616885], [-112.14315390000002, 33.4616876], [-112.1431548, 33.4586673], [-112.1431493, 33.4514015], [-112.1431286, 33.4514016], [-112.1388224, 33.4514133], [-112.13465870000002, 33.4514246], [-112.1345286, 33.4514249], [-112.1345244, 33.4514249], [-112.13039890000002, 33.4513867], [-112.1302818, 33.4513857], [-112.126035, 33.4513463], [-112.11766, 33.451096], [-112.1175325, 33.4510922], [-112.1175322, 33.4510922], [-112.1174653, 33.4536573]]]], "type": "MultiPolygon"}}, {"type": "Feature", "properties": {"Precinct_Cap": "LEWIS", "district_id": "MC0447", "total_responses": 44, "mailing_back": 30, "voting_in_person": 10, "not_voting": 4}, "geometry": {"coordinates": [[[[-112.1343728, 33.4799165], [-112.13436930000002, 33.4804366], [-112.1343719, 33.4804366], [-112.1345774, 33.4804377], [-112.1383925, 33.4804578], [-112.1407616, 33.4804702], [-112.1429582, 33.4804817], [-112.1429642, 33.4804817], [-112.14437350000001, 33.4804803], [-112.1472962, 33.4804773], [-112.1514489, 33.4804729], [-112.1516566, 33.4804727], [-112.1516655, 33.4804726], [-112.1516704, 33.4799713], [-112.1516904, 33.4779167], [-112.1516966, 33.47728], [-112.1517, 33.4769249], [-112.151736, 33.4732266], [-112.1517297, 33.4732266], [-112.1344185, 33.4731706], [-112.1343728, 33.4799165]]]], "type": "MultiPolygon"}}, {"type": "Feature", "properties": {"Precinct_Cap": "MONTE VISTA", "district_id": "MC0530", "total_responses": 0, "mailing_back": 0, "voting_in_person": 0, "not_voting": 0}, "geometry": {"coordinates": [[[[-112.2032216, 33.465867], [-112.1951364, 33.4659237], [-112.195123, 33.4659238], [-112.1866372, 33.4659818], [-112.1864613, 33.465983], [-112.18643409999999, 33.4659831], [-112.18642830000002, 33.4659832], [-112.1864107, 33.4732682], [-112.20318129999998, 33.4731022], [-112.20333229999999, 33.4731007], [-112.2033524, 33.4658661], [-112.2032216, 33.465867]]]], "type": "MultiPolygon"}}]}